FeatureUID,DsgAttr01,Country,FeatureNam,NameVar,FeatureTyp,Latitude,Longitude,LocConfid,DsgAttr02,DsgAttr03,DsgAttr04,DsgAttr05,DsgAttr06,DsgAttr07,DsgAttr08,OperateNam,OwnerName,Website,DsgAttr09,Label1,LocSource1,InfSource1,ADM1,DsgAttr10,geometry,id,infra,name,iso3,Continent_Code,dist,matches
SOp02,SOp02b,Somalia,Boosaaso,Puntland,General Cargo Port,11.290326,49.180982,E,Y,Cement,Unspecified (General Cargo),51700.0,Metric tons,<Null>,<Null>,Ministry of Marine Transport and Ports,Somali Ports Authority,<Null>,<Null>,<Null>,"NGA-WPI-Pub150, Google Maps","NGA-WPI-Pub150, SOp001, SOp002",Bari,47830,POINT (5474801.872953153 1256686.9242496635),port157,port,Boosaaso_Somalia,SOM,AF,36.14107570677854,Y
SOp02,SOp02a,Somalia,Boosaaso,Puntland,Oil and Gas Terminal,11.290326,49.180982,E,Y,"Oil and Gas Products, Refined",Diesel (not Bulk),36200.0,Metric tons,<Null>,<Null>,Ministry of Marine Transport and Ports,Somali Ports Authority,<Null>,<Null>,SOp2,"NGA-WPI-Pub150, Google Maps","NGA-WPI-Pub150, SOp001, SOp002",Bari,47830,POINT (5474801.872953153 1256686.9242496635),port157,port,Boosaaso_Somalia,SOM,AF,36.14107570677854,Y
MZp04,MZp04a,Mozambique,Pemba,<Null>,Oil and Gas Terminal,-12.966628,40.48709,E,N,Oil and Gas Products,Liquefied Natural Gas (LNG),-999.0,NA,<Null>,<Null>,Empresa Nacional de Hidrocarbonetos (ENH),"Portos e Caminhos de Ferro de Moçambique, E.P.",https://www.cfm.co.mz/index.php/pt/,<Null>,MZp4,"NGA-WPI-Pub150, Google Maps","NGA-WPI-Pub150, MZp012",Cabo Delgado,46940,POINT (4507002.242501439 -1446338.1258383172),port896,port,Pemba_Mozambique,MOZ,AF,39.61043030063316,Y
DZp05,DZp05b,Algeria,Mostaganem,<Null>,Bulk Commodities Port,35.934862,0.076635,E,Y,Iron and Steel,"Ferrous Products, Iron Pipes",2330.0,Metric tons,<Null>,<Null>,<Null>,Entreprise Portuaire de Mostaganem,http://www.port-mostaganem.dz/,"United States, Canada, Belgium",<Null>,"NGA-WPI-Pub150, DZp012, Google Earth","NGA-WPI-Pub150, DZp014",Mostaganem,45620,POINT (8530.96917694252 4266585.121827277),port771,port,Mostaganem_Algeria,DZA,AF,45.6909767684714,Y
DZp05,DZp05a,Algeria,Mostaganem,<Null>,Bulk Commodities Port,35.934862,0.076635,E,Y,Iron and Steel,"Ferrous Products, Reinforcing Bars",85400.0,Metric tons,<Null>,<Null>,<Null>,Entreprise Portuaire de Mostaganem,http://www.port-mostaganem.dz/,"United States, Canada, Belgium",DZp5,"NGA-WPI-Pub150, DZp012, Google Earth","NGA-WPI-Pub150, DZp014",Mostaganem,45620,POINT (8530.96917694252 4266585.121827277),port771,port,Mostaganem_Algeria,DZA,AF,45.6909767684714,Y
NAp01,NAp01a,Namibia,Luderitz Bay,<Null>,General Cargo Port,-26.641568,15.153546,E,Y,Diamonds,Unspecified,-999.0,NA,<Null>,<Null>,<Null>,Namport,https://www.namport.com.na/,<Null>,NAp1,"NGA-WPI-Pub150, Google Maps","NGA-WPI-Pub150, NAp003",!Karas,46650,POINT (1686885.0244324475 -3059606.773710743),port668,port,Luderitz Bay_Namibia,NAM,AF,52.0386811466963,Y
NAp01,NAp01b,Namibia,Luderitz Bay,<Null>,Bulk Commodities Port,-26.641568,15.153546,E,Y,Manganese,Unspecified,-999.0,NA,<Null>,Tshipi Borwa Mine in Northern Cape,<Null>,Namport,https://www.namport.com.na/,<Null>,<Null>,"NGA-WPI-Pub150, Google Maps","NGA-WPI-Pub150, NAp002, NAp004",!Karas,46650,POINT (1686885.0244324475 -3059606.773710743),port668,port,Luderitz Bay_Namibia,NAM,AF,52.0386811466963,Y
TZp02,TZp02g,Tanzania,Zanzibar,Malindi Port (Unguja),Bulk Commodities Port,-6.155894,39.192739,E,Y,Iron and Steel,"Iron Ore, Steel Products (Unspecified)",-999.0,NA,<Null>,<Null>,Zanzibar Ports Corporation (ZPC),Zanzibar Maritime Authority (ZMA),https://www.zma.go.tz/,<Null>,<Null>,"NGA-WPI-Pub150, Google Maps","NGA-WPI-Pub150, TZp002, TZp003",Zanzibar West,47050,POINT (4362915.748273674 -682014.4446669417),port1421,port,Zanzibar_Tanzania,TZA,AF,65.46263917663646,Y
TZp02,TZp02b,Tanzania,Zanzibar,Malindi Port (Unguja),Bulk Commodities Port,-6.155894,39.192739,E,Y,Fertilizer,Sodium Nitrate,-999.0,NA,<Null>,<Null>,Zanzibar Ports Corporation (ZPC),Zanzibar Maritime Authority (ZMA),https://www.zma.go.tz/,<Null>,TZp2,"NGA-WPI-Pub150, Google Maps","NGA-WPI-Pub150, TZp002, TZp003",Zanzibar West,47050,POINT (4362915.748273674 -682014.4446669417),port1421,port,Zanzibar_Tanzania,TZA,AF,65.46263917663646,Y
TZp02,TZp02d,Tanzania,Zanzibar,Malindi Port (Unguja),Bulk Commodities Port,-6.155894,39.192739,E,Y,Gypsum,Unspecified,-999.0,NA,<Null>,<Null>,Zanzibar Ports Corporation (ZPC),Zanzibar Maritime Authority (ZMA),https://www.zma.go.tz/,<Null>,<Null>,"NGA-WPI-Pub150, Google Maps","NGA-WPI-Pub150, TZp002, TZp003",Zanzibar West,47050,POINT (4362915.748273674 -682014.4446669417),port1421,port,Zanzibar_Tanzania,TZA,AF,65.46263917663646,Y
TZp02,TZp02f,Tanzania,Zanzibar,Malindi Port (Unguja),Bulk Commodities Port,-6.155894,39.192739,E,Y,Coal,Unspecified,-999.0,NA,<Null>,<Null>,Zanzibar Ports Corporation (ZPC),Zanzibar Maritime Authority (ZMA),https://www.zma.go.tz/,<Null>,<Null>,"NGA-WPI-Pub150, Google Maps","NGA-WPI-Pub150, TZp002, TZp003",Zanzibar West,47050,POINT (4362915.748273674 -682014.4446669417),port1421,port,Zanzibar_Tanzania,TZA,AF,65.46263917663646,Y
TZp02,TZp02h,Tanzania,Zanzibar,Malindi Port (Unguja),Bulk Commodities Port,-6.155894,39.192739,E,Y,Zinc,Zinc Ore,-999.0,NA,<Null>,<Null>,Zanzibar Ports Corporation (ZPC),Zanzibar Maritime Authority (ZMA),https://www.zma.go.tz/,<Null>,<Null>,"NGA-WPI-Pub150, Google Maps","NGA-WPI-Pub150, TZp002, TZp003",Zanzibar West,47050,POINT (4362915.748273674 -682014.4446669417),port1421,port,Zanzibar_Tanzania,TZA,AF,65.46263917663646,Y
TZp02,TZp02c,Tanzania,Zanzibar,Malindi Port (Unguja),Bulk Commodities Port,-6.155894,39.192739,E,Y,Cement,Clinker,-999.0,NA,<Null>,<Null>,Zanzibar Ports Corporation (ZPC),Zanzibar Maritime Authority (ZMA),https://www.zma.go.tz/,<Null>,<Null>,"NGA-WPI-Pub150, Google Maps","NGA-WPI-Pub150, TZp002, TZp003",Zanzibar West,47050,POINT (4362915.748273674 -682014.4446669417),port1421,port,Zanzibar_Tanzania,TZA,AF,65.46263917663646,Y
TZp02,TZp02e,Tanzania,Zanzibar,Malindi Port (Unguja),Bulk Commodities Port,-6.155894,39.192739,E,Y,Copper,"Copper Slugs, Other (Unspecified)",-999.0,NA,<Null>,<Null>,Zanzibar Ports Corporation (ZPC),Zanzibar Maritime Authority (ZMA),https://www.zma.go.tz/,<Null>,<Null>,"NGA-WPI-Pub150, Google Maps","NGA-WPI-Pub150, TZp002, TZp003",Zanzibar West,47050,POINT (4362915.748273674 -682014.4446669417),port1421,port,Zanzibar_Tanzania,TZA,AF,65.46263917663646,Y
TZp02,TZp02a,Tanzania,Zanzibar,Malindi Port (Unguja),Oil and Gas Terminal,-6.155894,39.192739,E,Y,"Oil and Gas Products, Refined","Petroleum Products, Kerosene, Diesel, Jet Oil",-999.0,NA,<Null>,<Null>,Zanzibar Ports Corporation (ZPC),Zanzibar Maritime Authority (ZMA),https://www.zma.go.tz/,<Null>,<Null>,"NGA-WPI-Pub150, Google Maps","NGA-WPI-Pub150, TZp002, TZp003",Zanzibar West,47050,POINT (4362915.748273674 -682014.4446669417),port1421,port,Zanzibar_Tanzania,TZA,AF,65.46263917663646,Y
MGp02,MGp02a,Madagascar,Port D'Ehoala,<Null>,General Cargo Port,-25.066622,46.96481,E,N,Titanium,Ilmenite,-999.0,NA,<Null>,<Null>,QIT Madagascar Minerals,QIT Madagascar Minerals,<Null>,Rio Tinto Fer Et Titane Plant,MGp2,Google Earth,"MGp004, MGp005",Toliary,N/A,POINT (5228098.734402842 -2865832.805959536),port340,port,Faradofay_Madagascar,MDG,AF,115.0014238597979,Y
MGp03,MGp03b,Madagascar,Toamasina,Port of Tamatave,General Cargo Port,-18.157553,49.427314,E,Y,Quartz,Unspecified,-999.0,NA,<Null>,<Null>,Madagascar International Container Terminal Services Ltd. (MICTSL),Société du Port à Gestion Autonome de Toamasina (SPAT),http://www.port-toamasina.com/,<Null>,<Null>,"NGA-WPI-Pub150, Google Maps","NGA-WPI-Pub150, MGp003",Toamasina,47540,POINT (5502223.425759242 -2042689.3071496189),port1301,port,Toamasina_Madagascar,MDG,AF,115.47177967355857,Y
MGp03,MGp03a,Madagascar,Toamasina,Port of Tamatave,Oil and Gas Terminal,-18.157553,49.427314,E,Y,Oil and Gas Products,"Crude Oil, Liquefied Natural Gas (LNG)",-999.0,NA,<Null>,<Null>,GRT,Société du Port à Gestion Autonome de Toamasina (SPAT),http://www.port-toamasina.com/,<Null>,MGp3,"NGA-WPI-Pub150, Google Maps","NGA-WPI-Pub150, MGp003, MGp005",Toamasina,47540,POINT (5502223.425759242 -2042689.3071496189),port1301,port,Toamasina_Madagascar,MDG,AF,115.47177967355857,Y
MGp03,MGp03f,Madagascar,Toamasina,Port of Tamatave,Bulk Commodities Port,-18.157553,49.427314,E,Y,Cobalt,Refined Cobalt,-999.0,NA,<Null>,Ambatovy mine,Ambotovy,Société du Port à Gestion Autonome de Toamasina (SPAT),http://www.port-toamasina.com/,<Null>,<Null>,"NGA-WPI-Pub150, Google Maps","NGA-WPI-Pub150, MGp002, MGp003, MGp005",Toamasina,47540,POINT (5502223.425759242 -2042689.3071496189),port1301,port,Toamasina_Madagascar,MDG,AF,115.47177967355857,Y
MGp03,MGp03d,Madagascar,Toamasina,Port of Tamatave,General Cargo Port,-18.157553,49.427314,E,Y,Graphite,Unspecified,-999.0,NA,<Null>,<Null>,Madagascar International Container Terminal Services Ltd. (MICTSL),Société du Port à Gestion Autonome de Toamasina (SPAT),http://www.port-toamasina.com/,<Null>,<Null>,"NGA-WPI-Pub150, Google Maps","NGA-WPI-Pub150, MGp003",Toamasina,47540,POINT (5502223.425759242 -2042689.3071496189),port1301,port,Toamasina_Madagascar,MDG,AF,115.47177967355857,Y
MGp03,MGp03c,Madagascar,Toamasina,Port of Tamatave,Bulk Commodities Port,-18.157553,49.427314,E,Y,Chromium,"Chrome Ore, Chrome Powder",-999.0,NA,<Null>,<Null>,Madagascar International Container Terminal Services Ltd. (MICTSL),Société du Port à Gestion Autonome de Toamasina (SPAT),http://www.port-toamasina.com/,<Null>,<Null>,"NGA-WPI-Pub150, Google Maps","NGA-WPI-Pub150, MGp003, MGp005",Toamasina,47540,POINT (5502223.425759242 -2042689.3071496189),port1301,port,Toamasina_Madagascar,MDG,AF,115.47177967355857,Y
MGp03,MGp03e,Madagascar,Toamasina,Port of Tamatave,Bulk Commodities Port,-18.157553,49.427314,E,Y,Nickel,Refined Nickel,-999.0,NA,<Null>,Ambatovy mine,Ambotovy,Société du Port à Gestion Autonome de Toamasina (SPAT),http://www.port-toamasina.com/,<Null>,<Null>,"NGA-WPI-Pub150, Google Maps","NGA-WPI-Pub150, MGp002, MGp003, MGp005",Toamasina,47540,POINT (5502223.425759242 -2042689.3071496189),port1301,port,Toamasina_Madagascar,MDG,AF,115.47177967355857,Y
MGp03,MGp03g,Madagascar,Toamasina,Port of Tamatave,Bulk Commodities Port,-18.157553,49.427314,E,Y,Fertilizer,Ammonium Sulphate,-999.0,NA,<Null>,Ambatovy mine,Ambotovy,Société du Port à Gestion Autonome de Toamasina (SPAT),http://www.port-toamasina.com/,<Null>,<Null>,"NGA-WPI-Pub150, Google Maps","NGA-WPI-Pub150, MGp002, MGp003, MGp005",Toamasina,47540,POINT (5502223.425759242 -2042689.3071496189),port1301,port,Toamasina_Madagascar,MDG,AF,115.47177967355857,Y
KMp01,KMp01a,Comoros,Moroni,<Null>,General Cargo Port,-11.7047,43.247987,E,N,Cement,Pozzolana (Cement),-999.0,NA,<Null>,<Null>,<Null>,APC Autorité Portuelle du Comoro,<Null>,<Null>,KMp1,"NGA-WPI-Pub150, Google Maps","NGA-WPI-Pub150, KMp001, KMp002",Njazídja,47300,POINT (4814343.890674115 -1303456.8437936932),port769,port,Moroni_Comoros,COM,AF,141.02559067426847,Y
MGp01,MGp01a,Madagascar,Mahajanga,<Null>,Bulk Commodities Port,-15.72646,46.30997,E,N,Cement,Unspecified,-999.0,NA,<Null>,<Null>,COMAMA,"Agence Portuaire, Maritime et Fluviale (APMF)",<Null>,<Null>,MGp1,"NGA-WPI-Pub150, Google Maps","NGA-WPI-Pub150, MGp001",Mahajanga,47400,POINT (5155202.279051775 -1761491.955816393),port680,port,Mahajanga_Madagascar,MDG,AF,154.1645525373576,Y
MAp07,MAp07c,Morocco,Safi,<Null>,Bulk Commodities Port,32.309835,-9.246361,E,Y,Coal,Coke,-999.0,NA,<Null>,<Null>,<Null>,Societe d'Exploitation des Ports SA (SODEP),https://www.marsamaroc.co.ma,<Null>,<Null>,"NGA-WPI-Pub150, Google Maps","NGA-WPI-Pub150, MAp006",Doukkala - Abda,45797,POINT (-1029300.1982107839 3781213.992189071),port1118,port,Safi_Morocco,MAR,AF,220.19896602719743,Y
MAp07,MAp07a,Morocco,Safi,<Null>,Bulk Commodities Port,32.309835,-9.246361,E,Y,Zinc,Unspecified,-999.0,NA,<Null>,<Null>,<Null>,Societe d'Exploitation des Ports SA (SODEP),https://www.marsamaroc.co.ma,<Null>,MAp7,"NGA-WPI-Pub150, Google Maps","NGA-WPI-Pub150, MAp006",Doukkala - Abda,45797,POINT (-1029300.1982107839 3781213.992189071),port1118,port,Safi_Morocco,MAR,AF,220.19896602719743,Y
MAp07,MAp07e,Morocco,Safi,<Null>,Bulk Commodities Port,32.309835,-9.246361,E,Y,Barium,Unspecified,-999.0,NA,<Null>,<Null>,<Null>,Societe d'Exploitation des Ports SA (SODEP),https://www.marsamaroc.co.ma,<Null>,<Null>,"NGA-WPI-Pub150, Google Maps","NGA-WPI-Pub150, MAp006",Doukkala - Abda,45797,POINT (-1029300.1982107839 3781213.992189071),port1118,port,Safi_Morocco,MAR,AF,220.19896602719743,Y
MAp07,MAp07b,Morocco,Safi,<Null>,Bulk Commodities Port,32.309835,-9.246361,E,Y,Fertilizer,"Phosphoric Acid, Caustic Soda",-999.0,NA,<Null>,<Null>,<Null>,Societe d'Exploitation des Ports SA (SODEP),https://www.marsamaroc.co.ma,<Null>,<Null>,"NGA-WPI-Pub150, Google Maps","NGA-WPI-Pub150, MAp006",Doukkala - Abda,45797,POINT (-1029300.1982107839 3781213.992189071),port1118,port,Safi_Morocco,MAR,AF,220.19896602719743,Y
MAp07,MAp07d,Morocco,Safi,<Null>,Bulk Commodities Port,32.309835,-9.246361,E,Y,Cement,Clinker,-999.0,NA,<Null>,<Null>,<Null>,Societe d'Exploitation des Ports SA (SODEP),https://www.marsamaroc.co.ma,<Null>,<Null>,"NGA-WPI-Pub150, Google Maps","NGA-WPI-Pub150, MAp006",Doukkala - Abda,45797,POINT (-1029300.1982107839 3781213.992189071),port1118,port,Safi_Morocco,MAR,AF,220.19896602719743,Y
LRp02,LRp02a,Liberia,Monrovia,Freeport of Monrovia,Bulk Commodities Port,6.341297,-10.796019,E,Y,Iron and Steel,Iron Ore,-999.0,NA,<Null>,"The Western Cluster (Mano River, Bomi Hills and Bea Mountain)",HSSE,National Port Authority of Liberia (NPA),http://www.npaliberia.com/,<Null>,LRp2,"NGA-WPI-Pub150, Google Maps","NGA-WPI-Pub150, LRp001, LRp007, LRp008",Montserrado,45940,POINT (-1201807.3376745065 702639.4151911149),port762,port,Monrovia_Liberia,LBR,AF,234.286310785472,Y
DZp06,DZp06a,Algeria,Oran,Wahrān,Oil and Gas Terminal,35.711423,-0.636276,E,N,Oil and Gas Products,"Crude Oil, Refined Oil Products, Liquefied Petroleum Gas (LPG), Natural Gas Plant Liquids (NGPL)",-999.0,NA,<Null>,<Null>,Sonatrach,Entreprise Portuaire d'Oran,http://www.port-oran.dz/,<Null>,DZp6,"NGA-WPI-Pub150, DZp009, Google Earth","NGA-WPI-Pub150, DZp009, DZp016",Oran,45640,POINT (-70829.92032398093 4236044.191318588),port856,port,Oran_Algeria,DZA,AF,246.22288659885663,Y
TNp07,TNp07a,Tunisia,Sousse,<Null>,Oil and Gas Terminal,35.824177,10.647382,E,N,"Oil and Gas Products, Refined",Unspecified Refined Products,-999.0,NA,<Null>,<Null>,<Null>,Office of Merchant Navy and Ports,http://www.ommp.nat.tn/,<Null>,TNp7,"NGA-WPI-Pub150, TNp015, Google Earth","NGA-WPI-Pub150, TNp005, TNp007, TNp015",Sousse,45410,POINT (1185261.1425214668 4251445.217399291),port1213,port,Sousse_Tunisia,TUN,AF,260.16239529525865,Y
DZp01,DZp01a,Algeria,Algiers,"Alger, El-Jazair",Oil and Gas Terminal,36.76488,3.06529,E,N,Oil and Gas Products,Hassi Messaoud Crude Oil,58.0,Thousand barrels per day,<Null>,Algiers (El Harrach) Refinery,Dubai Ports World (DP World),Entreprise Portuaire d'Alger,https://www.portalger.com.dz/,<Null>,DZp1,"NGA-WPI-Pub150, DZp001, Google Earth","NGA-WPI-Pub150, DZp001, DZp015, DZp016",Algiers,45570,POINT (341226.5219337136 4380808.156059589),port32,port,Alger_Algeria,DZA,AF,273.47978918018026,Y
GMp01,GMp01a,"Gambia, The",Banjul,<Null>,Oil and Gas Terminal,13.444562,-16.571484,E,N,Oil and Gas Products,Heavy Fuel Oil (HFO),42.0,42-gallon barrels per day,<Null>,<Null>,<Null>,Gambia Ports Authority,https://www.gambiaports.gm/,<Null>,GMp1,"NGA-WPI-Pub150, Google Maps","NGA-WPI-Pub150, GMp001, GMp002",Banjul,45825,POINT (-1844729.1605688806 1500639.8967843908),port113,port,Banjul_Gambia,GMB,AF,297.3134712132899,Y
BEp01,BEp01b,Benin,Cotonou,Port Autonome de Cotonou Pac,Bulk Commodities Port,6.345091,2.425525,E,Y,Cement,Unspecified,1.8,Million metric tons,<Null>,Cotonou Plant and Masse Plant,Bolloré Africa Logiscs,Ports Authority of Cotonou,http://www.portcotonou.com/,<Null>,<Null>,"NGA-WPI-Pub150, BEp001, Google Maps","NGA-WPI-Pub150, BEp001, BEp003, WRLDp002, BEp002",Littoral,46110,POINT (270008.20790635486 703061.5526256157),port265,port,Cotonou_Benin,BEN,AF,298.0063492029387,Y
BEp01,BEp01a,Benin,Cotonou,Port Autonome de Cotonou Pac,General Cargo Port,6.345091,2.425525,E,Y,Uranium,Unspecified,-999.0,NA,<Null>,Northern Niger,Bolloré Africa Logiscs,Ports Authority of Cotonou,http://www.portcotonou.com/,<Null>,BEp1,"NGA-WPI-Pub150, BEp001, Google Maps","NGA-WPI-Pub150, BEp001, BEp002",Littoral,46110,POINT (270008.20790635486 703061.5526256157),port265,port,Cotonou_Benin,BEN,AF,298.0063492029387,Y
GNp01,GNp01b,Guinea,Conakry,<Null>,Bulk Commodities Port,9.516667,-13.716667,E,Y,Cement,Cement (Bulk),300000.0,Metric tons,<Null>,Conakry Grinding Plant,Ciments de Guinée S.A,Port Authority of Conakry,<Null>,<Null>,<Null>,"NGA-WPI-Pub150, Google Maps","NGA-WPI-Pub150, GNp001",Conakry,45855,POINT (-1526932.3858208992 1057235.6888527896),port258,port,Conakry_Guinea,GIN,AF,324.4788745434148,Y
GNp01,GNp01d,Guinea,Conakry,<Null>,General Cargo Port,9.516667,-13.716667,E,Y,Diamond,Unspecified,-999.0,NA,<Null>,<Null>,<Null>,Port Authority of Conakry,<Null>,<Null>,<Null>,"NGA-WPI-Pub150, Google Maps","NGA-WPI-Pub150, GNp001, GNp002",Conakry,45855,POINT (-1526932.3858208992 1057235.6888527896),port258,port,Conakry_Guinea,GIN,AF,324.4788745434148,Y
GNp01,GNp01a,Guinea,Conakry,<Null>,Bulk Commodities Port,9.516667,-13.716667,E,Y,Aluminum,Bauxite,-999.0,NA,<Null>,<Null>,<Null>,Port Authority of Conakry,<Null>,<Null>,GNp1,"NGA-WPI-Pub150, Google Maps","NGA-WPI-Pub150, GNp001, GNp002",Conakry,45855,POINT (-1526932.3858208992 1057235.6888527896),port258,port,Conakry_Guinea,GIN,AF,324.4788745434148,Y
GNp01,GNp01e,Guinea,Conakry,<Null>,General Cargo Port,9.516667,-13.716667,E,Y,Iron and Steel,Iron Ore,-999.0,NA,<Null>,<Null>,<Null>,Port Authority of Conakry,<Null>,<Null>,<Null>,"NGA-WPI-Pub150, Google Maps","NGA-WPI-Pub150, GNp001",Conakry,45855,POINT (-1526932.3858208992 1057235.6888527896),port258,port,Conakry_Guinea,GIN,AF,324.4788745434148,Y
GNp01,GNp01c,Guinea,Conakry,<Null>,General Cargo Port,9.516667,-13.716667,E,Y,Gold,Unspecified,-999.0,NA,<Null>,<Null>,<Null>,Port Authority of Conakry,<Null>,<Null>,<Null>,"NGA-WPI-Pub150, Google Maps","NGA-WPI-Pub150, GNp001, GNp002",Conakry,45855,POINT (-1526932.3858208992 1057235.6888527896),port258,port,Conakry_Guinea,GIN,AF,324.4788745434148,Y
CPp01,CPp01d,Cabo Verde,Porto Grande,Mindelo,Bulk Commodities Port,16.890709,-24.995812,E,N,Dimension Stone,Limestone,-999.0,NA,<Null>,<Null>,<Null>,"Portos de Cabo Verde, Enapor",http://www.enapor.cv/en_US/,<Null>,<Null>,"NGA-WPI-Pub150, Google Maps","NGA-WPI-Pub150, WRLDp002",São Vicente,45880,POINT (-2782521.0638043974 1895698.6066102267),port1009,port,Porto Grande_Cape Verde,CPV,AF,406.40735298560963,Y
CPp01,CPp01f,Cabo Verde,Porto Grande,Mindelo,Bulk Commodities Port,16.890709,-24.995812,E,N,Sand,Unspecified,-999.0,NA,<Null>,<Null>,<Null>,"Portos de Cabo Verde, Enapor",http://www.enapor.cv/en_US/,<Null>,<Null>,"NGA-WPI-Pub150, Google Maps","NGA-WPI-Pub150, WRLDp002",São Vicente,45880,POINT (-2782521.0638043974 1895698.6066102267),port1009,port,Porto Grande_Cape Verde,CPV,AF,406.40735298560963,Y
CPp01,CPp01e,Cabo Verde,Porto Grande,Mindelo,Bulk Commodities Port,16.890709,-24.995812,E,N,Salt,Unspecified,-999.0,NA,<Null>,<Null>,<Null>,"Portos de Cabo Verde, Enapor",http://www.enapor.cv/en_US/,<Null>,<Null>,"NGA-WPI-Pub150, Google Maps","NGA-WPI-Pub150, WRLDp002",São Vicente,45880,POINT (-2782521.0638043974 1895698.6066102267),port1009,port,Porto Grande_Cape Verde,CPV,AF,406.40735298560963,Y
CPp01,CPp01c,Cabo Verde,Porto Grande,Mindelo,Bulk Commodities Port,16.890709,-24.995812,E,N,Clay,Kaolin,-999.0,NA,<Null>,<Null>,<Null>,"Portos de Cabo Verde, Enapor",http://www.enapor.cv/en_US/,<Null>,<Null>,"NGA-WPI-Pub150, Google Maps","NGA-WPI-Pub150, WRLDp002",São Vicente,45880,POINT (-2782521.0638043974 1895698.6066102267),port1009,port,Porto Grande_Cape Verde,CPV,AF,406.40735298560963,Y
CPp01,CPp01b,Cabo Verde,Porto Grande,Mindelo,Bulk Commodities Port,16.890709,-24.995812,E,N,Gypsum,Unspecified,-999.0,NA,<Null>,<Null>,<Null>,"Portos de Cabo Verde, Enapor",http://www.enapor.cv/en_US/,<Null>,<Null>,"NGA-WPI-Pub150, Google Maps","NGA-WPI-Pub150, WRLDp002",São Vicente,45880,POINT (-2782521.0638043974 1895698.6066102267),port1009,port,Porto Grande_Cape Verde,CPV,AF,406.40735298560963,Y
CPp01,CPp01a,Cabo Verde,Porto Grande,Mindelo,Bulk Commodities Port,16.890709,-24.995812,E,N,Cement,Pozzolana (Cement),-999.0,NA,<Null>,<Null>,<Null>,"Portos de Cabo Verde, Enapor",http://www.enapor.cv/en_US/,<Null>,CPp1,"NGA-WPI-Pub150, Google Maps","NGA-WPI-Pub150, WRLDp002",São Vicente,45880,POINT (-2782521.0638043974 1895698.6066102267),port1009,port,Porto Grande_Cape Verde,CPV,AF,406.40735298560963,Y
GAp02,GAp02a,Gabon,Port Gentil,<Null>,Oil and Gas Terminal,-0.6894,8.774696,E,N,Oil and Gas Products,Oil (Unspecified),24.0,Thousand barrels per day,<Null>,<Null>,Perenco Group,Office des Ports et Rades du Gabon,<Null>,<Null>,GAp2,"NGA-WPI-Pub150, Google Maps","NGA-WPI-Pub150, GAp005",Ogooué-Maritime,46440,POINT (976794.6905857744 -76231.76982522589),port952,port,Port Gentil_Gabon,GAB,AF,408.07218895788714,Y
ZAp07,ZAp07a,South Africa,Richards Bay,<Null>,Bulk Commodities Port,-28.788891,32.03952,E,N,Coal,Unspecified (Bulk),72.0,Million metric tons,<Null>,"From Mines in Mpumalanga, Kwazulu-Natal",Richards Bay Coal Terminal (Proprietary) Ltd. (RBCT),Transnet National Port Authority and Ingwe (Subsidiary of BHP Billiton Ltd.),https://www.transnetnationalportsauthority.net/Pages/default.aspx,<Null>,ZAp7,"NGA-WPI-Pub150, Google Maps, ZAp003","NGA-WPI-Pub150, ZAp001, ZAp003, WRLDp001, ZAp013, ZAp017",KwaZulu-Natal,46855,POINT (3566623.0516609047 -3328230.773152008),port1099,port,Richards Bay_South Africa,ZAF,AF,443.5762507998604,Y
SDp01,SDp01b,Sudan,Port Sudan,<Null>,Oil and Gas Terminal,19.6,37.233333,E,Y,Oil and Gas Products,Oil (Unspecified),-999.0,NA,<Null>,<Null>,Sudan Sea Ports Corporation,Sudan Sea Ports Corporation,http://sudanports.gov.sd/web/en/,<Null>,<Null>,"NGA-WPI-Pub150, Google Maps","NGA-WPI-Pub150, SDp003",Red Sea,47940,POINT (4144795.6700963895 2211378.5539794266),port977,port,Port Sudan_Sudan,SDN,AF,461.9924036009706,Y
SDp01,SDp01a,Sudan,Port Sudan,<Null>,Bulk Commodities Port,19.6,37.233333,E,Y,Cement,Sea Bulk Cement,-999.0,NA,<Null>,<Null>,Sudan Sea Ports Corporation,Sudan Sea Ports Corporation,http://sudanports.gov.sd/web/en/,<Null>,SDp1,"NGA-WPI-Pub150, Google Maps","NGA-WPI-Pub150, SDp002",Red Sea,47940,POINT (4144795.6700963895 2211378.5539794266),port977,port,Port Sudan_Sudan,SDN,AF,461.9924036009706,Y
SNp01,SNp01h,Senegal,Dakar,<Null>,Bulk Commodities Port,14.687497,-17.426862,E,Y,Clay,Attapulgite,175000.0,Metric tons,<Null>,<Null>,Necotrans,Direction Générale du Port Autonome de Dakar Dubaï Port,https://www.portdakar.sn/en,<Null>,<Null>,"NGA-WPI-Pub150, Google Maps","NGA-WPI-Pub150, SNp001, SNp002, SNp003",Dakar,45820,POINT (-1939949.403964649 1642383.9872330693),port272,port,Dakar_Senegal,SEN,AF,469.30672783130973,Y
SNp01,SNp01i,Senegal,Dakar,<Null>,Bulk Commodities Port,14.687497,-17.426862,E,Y,Fertilizer,Unspecified,102000.0,Metric tons,<Null>,<Null>,Necotrans,Direction Générale du Port Autonome de Dakar Dubaï Port,https://www.portdakar.sn/en,<Null>,<Null>,"NGA-WPI-Pub150, Google Maps","NGA-WPI-Pub150, SNp001, SNp002, SNp003",Dakar,45820,POINT (-1939949.403964649 1642383.9872330693),port272,port,Dakar_Senegal,SEN,AF,469.30672783130973,Y
SNp01,SNp01g,Senegal,Dakar,<Null>,Bulk Commodities Port,14.687497,-17.426862,E,Y,Coal,Unspecified,182000.0,Metric tons,<Null>,<Null>,Necotrans,Direction Générale du Port Autonome de Dakar Dubaï Port,https://www.portdakar.sn/en,<Null>,<Null>,"NGA-WPI-Pub150, Google Maps","NGA-WPI-Pub150, SNp001, SNp002, SNp003",Dakar,45820,POINT (-1939949.403964649 1642383.9872330693),port272,port,Dakar_Senegal,SEN,AF,469.30672783130973,Y
SNp01,SNp01c,Senegal,Dakar,<Null>,General Cargo Port,14.687497,-17.426862,E,Y,Chemical Products,Caustic Soda,-999.0,NA,<Null>,<Null>,Necotrans,Direction Générale du Port Autonome de Dakar Dubaï Port,https://www.portdakar.sn/en,<Null>,<Null>,"NGA-WPI-Pub150, Google Maps","NGA-WPI-Pub150, SNp001, SNp002, SNp003",Dakar,45820,POINT (-1939949.403964649 1642383.9872330693),port272,port,Dakar_Senegal,SEN,AF,469.30672783130973,Y
SNp01,SNp01d,Senegal,Dakar,<Null>,Bulk Commodities Port,14.687497,-17.426862,E,Y,Cement,Clinker,682000.0,Metric tons,<Null>,<Null>,Necotrans,Direction Générale du Port Autonome de Dakar Dubaï Port,https://www.portdakar.sn/en,<Null>,<Null>,"NGA-WPI-Pub150, Google Maps","NGA-WPI-Pub150, SNp001, SNp002, SNp003",Dakar,45820,POINT (-1939949.403964649 1642383.9872330693),port272,port,Dakar_Senegal,SEN,AF,469.30672783130973,Y
SNp01,SNp01e,Senegal,Dakar,<Null>,Bulk Commodities Port,14.687497,-17.426862,E,Y,Sulfur,Unspecified,306000.0,Metric tons,<Null>,<Null>,Necotrans,Direction Générale du Port Autonome de Dakar Dubaï Port,https://www.portdakar.sn/en,<Null>,<Null>,"NGA-WPI-Pub150, Google Maps","NGA-WPI-Pub150, SNp001, SNp002, SNp003",Dakar,45820,POINT (-1939949.403964649 1642383.9872330693),port272,port,Dakar_Senegal,SEN,AF,469.30672783130973,Y
SNp01,SNp01f,Senegal,Dakar,<Null>,General Cargo Port,14.687497,-17.426862,E,Y,Gypsum,Unspecified,-999.0,NA,<Null>,<Null>,Necotrans,Direction Générale du Port Autonome de Dakar Dubaï Port,https://www.portdakar.sn/en,<Null>,<Null>,"NGA-WPI-Pub150, Google Maps","NGA-WPI-Pub150, SNp001, SNp002, SNp003",Dakar,45820,POINT (-1939949.403964649 1642383.9872330693),port272,port,Dakar_Senegal,SEN,AF,469.30672783130973,Y
SNp01,SNp01k,Senegal,Dakar,<Null>,Bulk Commodities Port,14.687497,-17.426862,E,Y,Mineral Sands,"Zircon, Rutile, Leucoxene",95000.0,Metric tons,<Null>,<Null>,Grande Côte Opérations (GCO),Direction Générale du Port Autonome de Dakar Dubaï Port,https://www.portdakar.sn/en,"Europe, America, Asia, Oceania",<Null>,"NGA-WPI-Pub150, Google Maps","NGA-WPI-Pub150, SNp006, SNp003",Dakar,45820,POINT (-1939949.403964649 1642383.9872330693),port272,port,Dakar_Senegal,SEN,AF,469.30672783130973,Y
SNp01,SNp01b,Senegal,Dakar,<Null>,Bulk Commodities Port,14.687497,-17.426862,E,Y,Fertilizer,Phosphoric Acid,392000.0,Metric tons,<Null>,<Null>,Necotrans,Direction Générale du Port Autonome de Dakar Dubaï Port,https://www.portdakar.sn/en,<Null>,<Null>,"NGA-WPI-Pub150, Google Maps","NGA-WPI-Pub150, SNp001, SNp002, SNp003",Dakar,45820,POINT (-1939949.403964649 1642383.9872330693),port272,port,Dakar_Senegal,SEN,AF,469.30672783130973,Y
SNp01,SNp01a,Senegal,Dakar,<Null>,Oil and Gas Terminal,14.687497,-17.426862,E,Y,Oil and Gas Products,"Refined Hydrocarbons, Crude Oil, Gas, Bitumen",-999.0,NA,<Null>,<Null>,SEA-invest N.V.,Direction Générale du Port Autonome de Dakar Dubaï Port,https://www.portdakar.sn/en,<Null>,SNp1,"NGA-WPI-Pub150, Google Maps","NGA-WPI-Pub150, SNp001, SNp005, SNp003",Dakar,45820,POINT (-1939949.403964649 1642383.9872330693),port272,port,Dakar_Senegal,SEN,AF,469.30672783130973,Y
SNp01,SNp01j,Senegal,Dakar,<Null>,Bulk Commodities Port,14.687497,-17.426862,E,Y,Titanium,"Ilmenite (Mineral sand, Bulk)",600000.0,Metric tons,<Null>,<Null>,Grande Côte Opérations (GCO),Direction Générale du Port Autonome de Dakar Dubaï Port,https://www.portdakar.sn/en,"Europe, America, Asia, Oceania",<Null>,"NGA-WPI-Pub150, Google Maps","NGA-WPI-Pub150, SNp006, SNp003",Dakar,45820,POINT (-1939949.403964649 1642383.9872330693),port272,port,Dakar_Senegal,SEN,AF,469.30672783130973,Y
NGp08,NGp08a,Nigeria,Onne,<Null>,Oil and Gas Terminal,4.68411,7.156304,E,Y,Oil and Gas Products,"Crude Oil, Refined Oil Products, Gas (Unspecified)",-999.0,NA,<Null>,<Null>,Messrs Intel Nig. Ltd.,Nigerian Ports Authority,https://nigerianports.gov.ng/,<Null>,NGp8,"NGA-WPI-Pub150, Google Earth","NGA-WPI-Pub150, NGp012",Rivers,46208,POINT (796636.1172418669 518527.7179436959),port851,port,Onne_Nigeria,NGA,AF,496.2876767647575,Y
NGp08,NGp08f,Nigeria,Onne,<Null>,Bulk Commodities Port,4.68411,7.156304,E,Y,Cement,Unspecified,-999.0,NA,<Null>,<Null>,Brawal Shipping Limited,Nigerian Ports Authority,https://nigerianports.gov.ng/,<Null>,<Null>,"NGA-WPI-Pub150, Google Earth","NGA-WPI-Pub150, NGp011",Rivers,46208,POINT (796636.1172418669 518527.7179436959),port851,port,Onne_Nigeria,NGA,AF,496.2876767647575,Y
NGp08,NGp08e,Nigeria,Onne,<Null>,Bulk Commodities Port,4.68411,7.156304,E,Y,Iron and Steel,Iron Rods,-999.0,NA,<Null>,<Null>,Brawal Shipping Limited,Nigerian Ports Authority,https://nigerianports.gov.ng/,<Null>,<Null>,"NGA-WPI-Pub150, Google Earth","NGA-WPI-Pub150, NGp011",Rivers,46208,POINT (796636.1172418669 518527.7179436959),port851,port,Onne_Nigeria,NGA,AF,496.2876767647575,Y
NGp08,NGp08b,Nigeria,Onne,<Null>,Bulk Commodities Port,4.68411,7.156304,E,Y,Salt,Unspecified,-999.0,NA,<Null>,<Null>,Brawal Shipping Limited,Nigerian Ports Authority,https://nigerianports.gov.ng/,<Null>,<Null>,"NGA-WPI-Pub150, Google Earth","NGA-WPI-Pub150, NGp011",Rivers,46208,POINT (796636.1172418669 518527.7179436959),port851,port,Onne_Nigeria,NGA,AF,496.2876767647575,Y
NGp08,NGp08c,Nigeria,Onne,<Null>,Bulk Commodities Port,4.68411,7.156304,E,Y,Chemical Products,Unspecified,-999.0,NA,<Null>,<Null>,Brawal Shipping Limited,Nigerian Ports Authority,https://nigerianports.gov.ng/,<Null>,<Null>,"NGA-WPI-Pub150, Google Earth","NGA-WPI-Pub150, NGp011",Rivers,46208,POINT (796636.1172418669 518527.7179436959),port851,port,Onne_Nigeria,NGA,AF,496.2876767647575,Y
NGp08,NGp08d,Nigeria,Onne,<Null>,Bulk Commodities Port,4.68411,7.156304,E,Y,Fertilizer,Unspecified,-999.0,NA,<Null>,<Null>,Brawal Shipping Limited,Nigerian Ports Authority,https://nigerianports.gov.ng/,<Null>,<Null>,"NGA-WPI-Pub150, Google Earth","NGA-WPI-Pub150, NGp011",Rivers,46208,POINT (796636.1172418669 518527.7179436959),port851,port,Onne_Nigeria,NGA,AF,496.2876767647575,Y
CGp02,CGp02a,Congo (Brazzaville),Pointe Noire,<Null>,Oil and Gas Terminal,-4.783582,11.831689,E,N,"Oil and Gas Products, Refined",Refined Petroleum Products,7600.0,Thousand 42-gallon barrels,<Null>,<Null>,Congolaise de Raffinage (CORAF),Port Authority of Pointe Noire,<Null>,<Null>,CGp2,"NGA-WPI-Pub150, Google Maps","NGA-WPI-Pub150, CGp004",Pointe Noire,46470,POINT (1317097.5947043763 -529564.9152154975),port919,port,Point Noire_Republic of Congo,COG,AF,509.17231206328995,Y
SOp01,SOp01a,Somalia,Berbera,Somaliland,Oil and Gas Terminal,10.437517,44.996133,E,N,"Oil and Gas Products, Refined",Fuel Oil,-999.0,NA,<Null>,<Null>,Somali Ports Authority,Somali Ports Authority,https://www.berberaseaport.net/,<Null>,SOp1,"NGA-WPI-Pub150, Google Maps","NGA-WPI-Pub150, SOp001, SOp002, SOp003, SOp005",Woqooyi Galbeed,47820,POINT (5008946.613226413 1160643.4797217587),port146,port,Berbera_Somalia,SOM,AF,522.9708485409101,Y
TGp02,TGp02d,Togo,Lome,<Null>,Bulk Commodities Port,6.139928,1.282861,E,Y,Oil and Gas Products,"Sulfur, Bitumen",-999.0,NA,<Null>,<Null>,Port Autonome de Lome,Port Autonome de Lome,https://www.togo-port.net/,"Burkina Faso, Ghana",<Null>,"NGA-WPI-Pub150, Google Maps","NGA-WPI-Pub150, TGp001, TGp002, TGp004, TGp005",Maritime,46090,POINT (142807.43327854972 680238.667250541),port657,port,Lome_Toga,TGO,AF,544.8774844341159,Y
TGp02,TGp02a,Togo,Lome,<Null>,Oil and Gas Terminal,6.139928,1.282861,E,Y,Oil and Gas Products,"Crude Oil, Refined Oil Products",-999.0,NA,<Null>,<Null>,Port Autonome de Lome,Port Autonome de Lome,https://www.togo-port.net/,"Angola, Côte d’Ivoire, Senegal, Nigeria, Benin",TGp2,"NGA-WPI-Pub150, Google Maps","NGA-WPI-Pub150, TGp001, TGp003, TGp004, TGp005",Maritime,46090,POINT (142807.43327854972 680238.667250541),port657,port,Lome_Toga,TGO,AF,544.8774844341159,Y
TGp02,TGp02b,Togo,Lome,<Null>,Bulk Commodities Port,6.139928,1.282861,E,Y,Gypsum,Unspecified,-999.0,NA,<Null>,<Null>,Port Autonome de Lome,Port Autonome de Lome,https://www.togo-port.net/,"Burkina Faso, Ghana",<Null>,"NGA-WPI-Pub150, Google Maps","NGA-WPI-Pub150, TGp001, TGp002, TGp004, TGp005",Maritime,46090,POINT (142807.43327854972 680238.667250541),port657,port,Lome_Toga,TGO,AF,544.8774844341159,Y
TGp02,TGp02c,Togo,Lome,<Null>,Bulk Commodities Port,6.139928,1.282861,E,Y,Cement,Clinker,-999.0,NA,<Null>,"Limestone Reserves, also Mined Near Lomé (Clinker/Cement)",Port Autonome de Lome,Port Autonome de Lome,https://www.togo-port.net/,"Burkina Faso, Ghana, Benin",<Null>,"NGA-WPI-Pub150, Google Maps","NGA-WPI-Pub150, TGp001, TGp002, TGp004, TGp005",Maritime,46090,POINT (142807.43327854972 680238.667250541),port657,port,Lome_Toga,TGO,AF,544.8774844341159,Y
MAp05,MAp05b,Morocco,Mohammedia,<Null>,Oil and Gas Terminal,33.715103,-7.395879,E,Y,"Oil and Gas Products, Refined","Jet Fuel, Jet Gasoline, Fuel Oil, base Oil",-999.0,NA,<Null>,<Null>,<Null>,Societe d'Exploitation des Ports SA (SODEP),https://www.marsamaroc.co.ma,<Null>,<Null>,"NGA-WPI-Pub150, Google Maps","NGA-WPI-Pub150, MAp004",Grand Casablanca,45790,POINT (-823305.4842486654 3966894.928695789),port756,port,Mohammedia_Morocco,MAR,AF,553.7845571207657,Y
MAp05,MAp05a,Morocco,Mohammedia,<Null>,Oil and Gas Terminal,33.715103,-7.395879,E,Y,Oil and Gas Products,"Crude Oil, Liquefied Petroleum Gas (LPG)",-999.0,NA,<Null>,<Null>,<Null>,Societe d'Exploitation des Ports SA (SODEP),https://www.marsamaroc.co.ma,<Null>,MAp5,"NGA-WPI-Pub150, Google Maps","NGA-WPI-Pub150, MAp004",Grand Casablanca,45790,POINT (-823305.4842486654 3966894.928695789),port756,port,Mohammedia_Morocco,MAR,AF,553.7845571207657,Y
GHp02,GHp02b,Ghana,Tema,<Null>,Oil and Gas Terminal,5.626993,0.005886,E,Y,Oil and Gas Products,Natural Gas,-999.0,NA,<Null>,Kwame Nkrumah Fpso Extracting from Jubilee Field,Marine Operations Department,Ghana Ports and Harbours Authority,https://www.ghanaports.gov.gh/,<Null>,<Null>,"NGA-WPI-Pub150, Google Maps, GHA004","NGA-WPI-Pub150, GHp002",Greater Accra,46070,POINT (655.2265228092082 623216.6991649698),port1282,port,Tema_Ghana,GHA,AF,574.6809483886329,Y
GHp02,GHp02a,Ghana,Tema,<Null>,Oil and Gas Terminal,5.626993,0.005886,E,Y,Oil and Gas Products,"Light, Sweet Crude Oil",45.0,Thousand barrels per day,<Null>,"Jubilee, Twenboa-Enyenra-Ntomme (Ten) and Offshore Cape Three Points (Octp) Fields, and Sankofa Oil Fields",Marine Operations Department,Ghana Ports and Harbours Authority,https://www.ghanaports.gov.gh/,<Null>,GHp2,"NGA-WPI-Pub150, Google Maps, GHA003","NGA-WPI-Pub150, GHp002, GHp003",Greater Accra,46070,POINT (655.2265228092082 623216.6991649698),port1282,port,Tema_Ghana,GHA,AF,574.6809483886329,Y
GHp02,GHp02c,Ghana,Tema,<Null>,General Cargo Port,5.626993,0.005886,E,Y,Aluminum,Unspecified,-999.0,NA,<Null>,<Null>,Volta Aluminium Company (VALCO),Ghana Ports and Harbours Authority,https://www.ghanaports.gov.gh/,<Null>,<Null>,"NGA-WPI-Pub150, Google Maps, GHA005","NGA-WPI-Pub150, GHp002, GHp003",Greater Accra,46070,POINT (655.2265228092082 623216.6991649698),port1282,port,Tema_Ghana,GHA,AF,574.6809483886329,Y
SCp01,SCp01a,Seychelles,Victoria,Mahe Quay,Oil and Gas Terminal,-4.628114,55.464133,E,Y,"Oil and Gas Products, Refined","Jet A1, Fuel Oil, Gas Oil, Kerosene, Liquefied Petroleum Gas (LPG)",-999.0,NA,<Null>,<Null>,Port Victoria Port Authority,Seychelles Ports Authority,http://www.seyport.sc/,<Null>,SCp1,"NGA-WPI-Pub150, Google Maps","NGA-WPI-Pub150, SCp001",Mont Fleuri,47220,POINT (6174239.0428504 -512315.22529666097),port1361,port,Victoria_Seychelles,SYC,AF,630.8651756768617,Y
SCp01,SCp01b,Seychelles,Victoria,Mahe Quay,Bulk Commodities Port,-4.628114,55.464133,E,Y,Cement,Unspecified,-999.0,NA,<Null>,<Null>,Port Victoria Port Authority,Seychelles Ports Authority,http://www.seyport.sc/,<Null>,<Null>,"NGA-WPI-Pub150, Google Maps","NGA-WPI-Pub150, SCp001",Mont Fleuri,47220,POINT (6174239.0428504 -512315.22529666097),port1361,port,Victoria_Seychelles,SYC,AF,630.8651756768617,Y
DZp02,DZp02a,Algeria,Annaba,<Null>,General Cargo Port,36.89805,7.772847,E,Y,Iron and Steel,Unspecified Steel Products,-999.0,NA,<Null>,"Arcelor-Mittal Steel Complex, El Hadjar",<Null>,Entreprise Portuaire de Annaba,http://www.annaba-port.com/,<Null>,DZp2,"NGA-WPI-Pub150, DZp002, Google Earth","NGA-WPI-Pub150, DZp002",Annaba,45490,POINT (865269.370054024 4399249.748444989),port53,port,Annaba_Algeria,DZA,AF,634.215576063545,Y
DZp02,DZp02b,Algeria,Annaba,<Null>,General Cargo Port,36.89805,7.772847,E,Y,Fertilizer,Phosphate,-999.0,NA,<Null>,<Null>,FERPHOS Installations Portuaires de Annaba,Entreprise Portuaire de Annaba,http://www.annaba-port.com/,<Null>,<Null>,"NGA-WPI-Pub150, DZp002, Google Earth","NGA-WPI-Pub150, DZp002, DZp003, DZp004, DZp005",Annaba,45490,POINT (865269.370054024 4399249.748444989),port53,port,Annaba_Algeria,DZA,AF,634.215576063545,Y
DZp02,DZp02d,Algeria,Annaba,<Null>,Bulk Commodities Port,36.89805,7.772847,E,Y,Fertilizer,"Potash, Urea, Phosphoric Acid, Ammonia, Urea-Ammonium Nitrate (UAN)",-999.0,NA,<Null>,<Null>,FERPHOS Installations Portuaires de Annaba,Entreprise Portuaire de Annaba,http://www.annaba-port.com/,<Null>,<Null>,"NGA-WPI-Pub150, DZp002, Google Earth","NGA-WPI-Pub150, DZp002, DZp003, DZp004, DZp005",Annaba,45490,POINT (865269.370054024 4399249.748444989),port53,port,Annaba_Algeria,DZA,AF,634.215576063545,Y
DZp02,DZp02e,Algeria,Annaba,<Null>,Bulk Commodities Port,36.89805,7.772847,E,Y,Iron and Steel,Iron Ore,-999.0,NA,<Null>,<Null>,<Null>,Entreprise Portuaire de Annaba,http://www.annaba-port.com/,<Null>,<Null>,"NGA-WPI-Pub150, DZp002, Google Earth","NGA-WPI-Pub150, DZp002, DZp005",Annaba,45490,POINT (865269.370054024 4399249.748444989),port53,port,Annaba_Algeria,DZA,AF,634.215576063545,Y
DZp02,DZp02c,Algeria,Annaba,<Null>,Bulk Commodities Port,36.89805,7.772847,E,Y,Coal,Coke,-999.0,NA,<Null>,<Null>,<Null>,Entreprise Portuaire de Annaba,http://www.annaba-port.com/,<Null>,<Null>,"NGA-WPI-Pub150, DZp002, Google Earth","NGA-WPI-Pub150, DZp002, DZp005",Annaba,45490,POINT (865269.370054024 4399249.748444989),port53,port,Annaba_Algeria,DZA,AF,634.215576063545,Y
TNp04,TNp04a,Tunisia,Mersa Sfax,<Null>,Bulk Commodities Port,34.722642,10.770709,E,Y,Fertilizer,Phosphate and By-Products (Bulk),-999.0,NA,<Null>,<Null>,Group Chimique Tunisien (GCT),Office of Merchant Navy and Ports,http://www.ommp.nat.tn/,<Null>,TNp4,"NGA-WPI-Pub150, Google Maps","NGA-WPI-Pub150, TNp004, TNp007, TNp008",Sfax,45390,POINT (1198989.841362529 4101914.4766298593),port733,port,Mersa Sfax_Tunisia,TUN,AF,676.5591428128776,Y
TNp04,TNp04c,Tunisia,Mersa Sfax,<Null>,Bulk Commodities Port,34.722642,10.770709,E,Y,Sulfur,Unspecified,-999.0,NA,<Null>,<Null>,Group Chimique Tunisien (GCT),Office of Merchant Navy and Ports,http://www.ommp.nat.tn/,<Null>,<Null>,"NGA-WPI-Pub150, Google Maps","NGA-WPI-Pub150, TNp004",Sfax,45390,POINT (1198989.841362529 4101914.4766298593),port733,port,Mersa Sfax_Tunisia,TUN,AF,676.5591428128776,Y
TNp04,TNp04b,Tunisia,Mersa Sfax,<Null>,Oil and Gas Terminal,34.722642,10.770709,E,Y,Oil and Gas Products,"Oil Products, Liquefied Petroleum Gas (LPG)",-999.0,NA,<Null>,<Null>,Group Chimique Tunisien (GCT),Office of Merchant Navy and Ports,http://www.ommp.nat.tn/,<Null>,<Null>,"NGA-WPI-Pub150, Google Maps","NGA-WPI-Pub150, TNp004",Sfax,45390,POINT (1198989.841362529 4101914.4766298593),port733,port,Mersa Sfax_Tunisia,TUN,AF,676.5591428128776,Y
TNp04,TNp04d,Tunisia,Mersa Sfax,<Null>,Bulk Commodities Port,34.722642,10.770709,E,Y,Salt,Sea Salt (Solid Bulk),-999.0,NA,<Null>,<Null>,Group Chimique Tunisien (GCT),Office of Merchant Navy and Ports,http://www.ommp.nat.tn/,<Null>,<Null>,"NGA-WPI-Pub150, Google Maps","NGA-WPI-Pub150, TNp004",Sfax,45390,POINT (1198989.841362529 4101914.4766298593),port733,port,Mersa Sfax_Tunisia,TUN,AF,676.5591428128776,Y
ZAp01,ZAp01a,South Africa,Cape Town,<Null>,Bulk Commodities Port,-33.910889,18.451139,E,N,Coal,Unspecified,-999.0,NA,<Null>,<Null>,Transnet Port Terminals,Transnet National Port Authority,https://www.transnetnationalportsauthority.net/Pages/default.aspx,<Null>,ZAp1,"NGA-WPI-Pub150, Google Maps, ZAp003","NGA-WPI-Pub150, ZAp001, ZAp002, ZAp003, WRLDp001, ZAp004, ZAp005",Western Cape,46770,POINT (2053971.398035911 -3993005.144229486),port215,port,Cape Town_South Africa,ZAF,AF,687.658069587482,Y
ZAp01,ZAp01b,South Africa,Cape Town,<Null>,Bulk Commodities Port,-33.910889,18.451139,E,N,Iron and Steel,"Steel (Unspecified), Scrap Metal",-999.0,NA,<Null>,<Null>,Transnet Port Terminals,Transnet National Port Authority,https://www.transnetnationalportsauthority.net/Pages/default.aspx,<Null>,<Null>,"NGA-WPI-Pub150, Google Maps, ZAp003","NGA-WPI-Pub150, ZAp001, ZAp002, ZAp003, WRLDp001, ZAp004, ZAp005",Western Cape,46770,POINT (2053971.398035911 -3993005.144229486),port215,port,Cape Town_South Africa,ZAF,AF,687.658069587482,Y
ZAp01,ZAp01c,South Africa,Cape Town,<Null>,Bulk Commodities Port,-33.910889,18.451139,E,N,Cement,Unspecified,-999.0,NA,<Null>,<Null>,Transnet Port Terminals,Transnet National Port Authority,https://www.transnetnationalportsauthority.net/Pages/default.aspx,<Null>,<Null>,"NGA-WPI-Pub150, Google Maps, ZAp003","NGA-WPI-Pub150, ZAp001, ZAp002, ZAp003, WRLDp001, ZAp004, ZAp005",Western Cape,46770,POINT (2053971.398035911 -3993005.144229486),port215,port,Cape Town_South Africa,ZAF,AF,687.658069587482,Y
NAp02,NAp02a,Namibia,Walvis Bay,<Null>,Bulk Commodities Port,-22.952062,14.495745,E,Y,Tantalum,Tantalum (Concentrate),-999.0,NA,<Null>,Morropino Mine,<Null>,Namport,https://www.namport.com.na/,<Null>,NAp2,"NGA-WPI-Pub150, Google Maps","NGA-WPI-Pub150, NAp001",Erongo,46640,POINT (1613658.9520691412 -2609566.302593097),port1381,port,Walvis Bay_Namibia,NAM,AF,718.1518660344365,Y
NAp02,NAp02b,Namibia,Walvis Bay,<Null>,Bulk Commodities Port,-22.952062,14.495745,E,Y,Copper,Concentrate,-999.0,NA,<Null>,"Deziwa Mine in Congo (Kinshasa), Chambishi Mine and Lumwana Mine in Zambia",<Null>,Namport,https://www.namport.com.na/,<Null>,<Null>,"NGA-WPI-Pub150, Google Maps","NGA-WPI-Pub150, TZp004",Erongo,46640,POINT (1613658.9520691412 -2609566.302593097),port1381,port,Walvis Bay_Namibia,NAM,AF,718.1518660344365,Y
LYp04,LYp04a,Libya,Banghazi,Benghazi,Oil and Gas Terminal,32.116667,20.05,E,Y,Oil and Gas Products,Petroleum Products (Liquid Bulk),-999.0,NA,<Null>,<Null>,Libyan Ports Company (Socialist Ports Company),Libyan Ports Company (Socialist Ports Company),https://www.lpclibya.com/,<Null>,LYp4,"NGA-WPI-Pub150, Google Maps","NGA-WPI-Pub150, LYp002",Benghazi,45280,POINT (2231955.790405135 3755920.408664997),port110,port,Banghazi_Libya,LBY,AF,733.295628384011,Y
LYp04,LYp04b,Libya,Banghazi,Benghazi,Bulk Commodities Port,32.116667,20.05,E,Y,Cement,Dry Bulk,1.5,Million metric tons,<Null>,"Libyan Cement Co. Inc., Benghazi Plant",Libyan Ports Company (Socialist Ports Company),Libyan Ports Company (Socialist Ports Company),https://www.lpclibya.com/,<Null>,<Null>,"NGA-WPI-Pub150, Google Maps","NGA-WPI-Pub150, LYp002, LYp003",Benghazi,45280,POINT (2231955.790405135 3755920.408664997),port110,port,Banghazi_Libya,LBY,AF,733.295628384011,Y
EGp09,EGp09a,Egypt,North Ain Sukhna Port,<Null>,Oil and Gas Terminal,29.653049,32.356042,E,N,Oil and Gas Products,Liquefied Bulk Petroleum,-999.0,NA,<Null>,<Null>,Arab Petroleum Pipelines CO (SUMED),Arab Petroleum Pipelines Co. (SUMED),http://www.sumed.org/,Sidi Kerir Port via Suez Mediterranean Pipeline (Sumed),EGp9,"NGA-WPI-Pub150, Google Maps","NGA-WPI-Pub150, EGp007, EGp009, EGp016",As Suways (Suez),48030,POINT (3601858.119525773 3437893.950935759),port828,port,North Ain Sukhna Port_Egypt,EGY,AF,754.1443167058693,Y
CMp01,CMp01d,Cameroon,Douala,<Null>,Bulk Commodities Port,4.04604,9.684832,E,Y,Chemical Products,Caustic Soda,-999.0,NA,<Null>,<Null>,<Null>,Office National des Ports du Cameroun,<Null>,<Null>,<Null>,"NGA-WPI-Pub150, Google Maps","NGA-WPI-Pub150, CMp004, CMp006",Littoral,46280,POINT (1078110.5666584014 447765.2212952939),port299,port,Douala_Cameroon,CMR,AF,775.6374852660783,Y
CMp01,CMp01a,Cameroon,Douala,<Null>,Bulk Commodities Port,4.04604,9.684832,E,Y,Aluminum,Aluminum Metal,-999.0,NA,<Null>,<Null>,<Null>,Office National des Ports du Cameroun,<Null>,<Null>,CMp1,"NGA-WPI-Pub150, Google Maps","NGA-WPI-Pub150, CMp004, CMp006",Littoral,46280,POINT (1078110.5666584014 447765.2212952939),port299,port,Douala_Cameroon,CMR,AF,775.6374852660783,Y
CMp01,CMp01c,Cameroon,Douala,<Null>,Bulk Commodities Port,4.04604,9.684832,E,Y,Oil and Gas Products,"Liquefied Petroleum Gas (LPG), Bitumen",-999.0,NA,<Null>,<Null>,<Null>,Office National des Ports du Cameroun,<Null>,<Null>,<Null>,"NGA-WPI-Pub150, Google Maps","NGA-WPI-Pub150, CMp004, CMp006",Littoral,46280,POINT (1078110.5666584014 447765.2212952939),port299,port,Douala_Cameroon,CMR,AF,775.6374852660783,Y
CMp01,CMp01b,Cameroon,Douala,<Null>,Bulk Commodities Port,4.04604,9.684832,E,Y,Cement,Clinker,-999.0,NA,<Null>,<Null>,<Null>,Office National des Ports du Cameroun,<Null>,<Null>,<Null>,"NGA-WPI-Pub150, Google Maps","NGA-WPI-Pub150, CMp004, CMp006",Littoral,46280,POINT (1078110.5666584014 447765.2212952939),port299,port,Douala_Cameroon,CMR,AF,775.6374852660783,Y
KEp02,KEp02d,Kenya,Mombasa,<Null>,Bulk Commodities Port,-4.04269,39.62995,E,Y,Titanium,Unspecified,-999.0,NA,<Null>,<Null>,Base Titanium,Kenya Ports Authority,https://kpa.co.ke/AboutUs/Pages/default.aspx,<Null>,<Null>,"NGA-WPI-Pub150, Google Maps","NGA-WPI-Pub150, KEp001",Mombasa,47100,POINT (4411585.854162892 -447393.86034954974),port757,port,Mombasa_Kenya,KEN,AF,781.952052959835,Y
KEp02,KEp02i,Kenya,Mombasa,<Null>,Bulk Commodities Port,-4.04269,39.62995,E,Y,Fluorspar,Unspecified,-999.0,NA,<Null>,<Null>,Bamburi Cement Company,Kenya Ports Authority,https://kpa.co.ke/AboutUs/Pages/default.aspx,<Null>,<Null>,"NGA-WPI-Pub150, Google Maps","NGA-WPI-Pub150, KEp002, KEp004",Mombasa,47100,POINT (4411585.854162892 -447393.86034954974),port757,port,Mombasa_Kenya,KEN,AF,781.952052959835,Y
KEp02,KEp02a,Kenya,Mombasa,<Null>,General Cargo Port,-4.04269,39.62995,E,Y,Chemical Products,Unspecified,-999.0,NA,<Null>,<Null>,Shimanzi Oil Terminal,Kenya Ports Authority,https://kpa.co.ke/AboutUs/Pages/default.aspx,<Null>,KEp2,"NGA-WPI-Pub150, Google Maps","NGA-WPI-Pub150, KEp001",Mombasa,47100,POINT (4411585.854162892 -447393.86034954974),port757,port,Mombasa_Kenya,KEN,AF,781.952052959835,Y
KEp02,KEp02g,Kenya,Mombasa,<Null>,Bulk Commodities Port,-4.04269,39.62995,E,Y,Fertilizer,Unspecified (Dry Bulk),-999.0,NA,<Null>,<Null>,Grain Bulk Handlers Ltd. (GBHL),Kenya Ports Authority,https://kpa.co.ke/AboutUs/Pages/default.aspx,<Null>,<Null>,"NGA-WPI-Pub150, Google Maps","NGA-WPI-Pub150, KEp002, KEp005",Mombasa,47100,POINT (4411585.854162892 -447393.86034954974),port757,port,Mombasa_Kenya,KEN,AF,781.952052959835,Y
KEp02,KEp02e,Kenya,Mombasa,<Null>,Bulk Commodities Port,-4.04269,39.62995,E,Y,Soda Ash,"Dense Soda Ash Sodium Carbonate, Crushed Refined Soda",-999.0,NA,<Null>,<Null>,Tata Chemicals Limited Magadi,Kenya Ports Authority,https://kpa.co.ke/AboutUs/Pages/default.aspx,<Null>,<Null>,"NGA-WPI-Pub150, Google Maps","NGA-WPI-Pub150, KEp002, KEp003",Mombasa,47100,POINT (4411585.854162892 -447393.86034954974),port757,port,Mombasa_Kenya,KEN,AF,781.952052959835,Y
KEp02,KEp02c,Kenya,Mombasa,<Null>,Bulk Commodities Port,-4.04269,39.62995,E,Y,Mineral Sands,"Rutile, Ilmenite, Zircon",-999.0,NA,<Null>,Kwale Mineral Sands Mine,Base Resources,Kenya Ports Authority,https://kpa.co.ke/AboutUs/Pages/default.aspx,<Null>,<Null>,"NGA-WPI-Pub150, Google Maps","NGA-WPI-Pub150, KEp001",Mombasa,47100,POINT (4411585.854162892 -447393.86034954974),port757,port,Mombasa_Kenya,KEN,AF,781.952052959835,Y
KEp02,KEp02h,Kenya,Mombasa,<Null>,Bulk Commodities Port,-4.04269,39.62995,E,Y,Iron and Steel,Unspecified (Break-Bulk),-999.0,NA,<Null>,<Null>,<Null>,Kenya Ports Authority,https://kpa.co.ke/AboutUs/Pages/default.aspx,<Null>,<Null>,"NGA-WPI-Pub150, Google Maps","NGA-WPI-Pub150, KEp003",Mombasa,47100,POINT (4411585.854162892 -447393.86034954974),port757,port,Mombasa_Kenya,KEN,AF,781.952052959835,Y
KEp02,KEp02b,Kenya,Mombasa,<Null>,Oil and Gas Terminal,-4.04269,39.62995,E,Y,Oil and Gas Products,"Crude Oil, Refined Oil Products",-999.0,NA,<Null>,East Africa Oil Refinery,Kipevu Oil Terminal,Kenya Ports Authority,https://kpa.co.ke/AboutUs/Pages/default.aspx,<Null>,<Null>,"NGA-WPI-Pub150, Google Maps","NGA-WPI-Pub150, KEp003",Mombasa,47100,POINT (4411585.854162892 -447393.86034954974),port757,port,Mombasa_Kenya,KEN,AF,781.952052959835,Y
KEp02,KEp02f,Kenya,Mombasa,<Null>,Bulk Commodities Port,-4.04269,39.62995,E,Y,Cement,Unspecified,-999.0,NA,<Null>,<Null>,Bamburi Cement Company,Kenya Ports Authority,https://kpa.co.ke/AboutUs/Pages/default.aspx,<Null>,<Null>,"NGA-WPI-Pub150, Google Maps","NGA-WPI-Pub150, KEp002, KEp004",Mombasa,47100,POINT (4411585.854162892 -447393.86034954974),port757,port,Mombasa_Kenya,KEN,AF,781.952052959835,Y
GHp01,GHp01a,Ghana,Takoradi,<Null>,Bulk Commodities Port,4.886308,-1.736887,E,Y,Aluminum,Bauxite (Bulk),-999.0,NA,<Null>,<Null>,Marine Operations Department,Ghana Ports and Harbours Authority,https://www.ghanaports.gov.gh/,<Null>,GHp1,"NGA-WPI-Pub150, Google Maps, GHA002","NGA-WPI-Pub150, GHp001, GHp003",Western,46040,POINT (-193349.37640545654 540964.8752396055),port1255,port,Takoradi_Ghana,GHA,AF,823.2974103726551,Y
GHp01,GHp01b,Ghana,Takoradi,<Null>,Bulk Commodities Port,4.886308,-1.736887,E,Y,Manganese,Manganese Ore,-999.0,NA,<Null>,"Nsuta-Tarkwa Manganese Mine, Western Region, Ghana",Ghana Manganese Co. Ltd.,Ghana Ports and Harbours Authority,https://www.ghanaports.gov.gh/,<Null>,<Null>,"NGA-WPI-Pub150, Google Maps, GHA003","NGA-WPI-Pub150, GHp001, GHp003",Western,46040,POINT (-193349.37640545654 540964.8752396055),port1255,port,Takoradi_Ghana,GHA,AF,823.2974103726551,Y
GHp01,GHp01d,Ghana,Takoradi,<Null>,Oil and Gas Terminal,4.886308,-1.736887,E,Y,Oil and Gas Products,Natural Gas,-999.0,NA,<Null>,Kwame Nkrumah Fpso Extracting from Jubilee Field,Ghana Oil Company (GOIL),Ghana Ports and Harbours Authority,https://www.ghanaports.gov.gh/,<Null>,<Null>,"NGA-WPI-Pub150, Google Maps, GHA005","NGA-WPI-Pub150, GHp001",Western,46040,POINT (-193349.37640545654 540964.8752396055),port1255,port,Takoradi_Ghana,GHA,AF,823.2974103726551,Y
GHp01,GHp01c,Ghana,Takoradi,<Null>,Oil and Gas Terminal,4.886308,-1.736887,E,Y,Oil and Gas Products,"Light, Sweet Crude Oil",-999.0,NA,<Null>,"Jubilee, Twenboa-Enyenra-Ntomme (Ten) and Offshore Cape Three Points (Octp) Fields, and Sankofa Oil Fields",Ghana Oil Company (GOIL),Ghana Ports and Harbours Authority,https://www.ghanaports.gov.gh/,<Null>,<Null>,"NGA-WPI-Pub150, Google Maps, GHA004","NGA-WPI-Pub150, GHp001, GHp003",Western,46040,POINT (-193349.37640545654 540964.8752396055),port1255,port,Takoradi_Ghana,GHA,AF,823.2974103726551,Y
AGp04,AGp04a,Angola,Malongo Oil Terminal,<Null>,Oil and Gas Terminal,-5.396569,12.197717,E,N,Oil and Gas Products,"Cabinda and Nemba Crude Oil, Liquefied Petroleum Gas (LPG)",-999.0,NA,<Null>,<Null>,Cabinda Gulf Oil Company Ltd. (CABGOC),Cabinda Gulf Oil Company Ltd. (CABGOC),https://angola.chevron.com/e<Null>bout/our-history-in-angola,LPG to Brazil,AGp4,"NGA-WPI-Pub150, Google Earth","NGA-WPI-Pub150, AGp006, AGp010",Cabinda,46487,POINT (1357843.6452804566 -597617.7834675811),port691,port,Malongo_Angola,AGO,AF,833.8002820889552,Y
NGp09,NGp09d,Nigeria,Port Harcourt,<Null>,Bulk Commodities Port,4.758376,7.005019,E,Y,Tin,Unspecified,-999.0,NA,<Null>,Jos Plateau,Ports & Terminal Operators Ltd. (PTOL),Nigerian Ports Authority,https://nigerianports.gov.ng/,<Null>,<Null>,"NGA-WPI-Pub150, NGp008, NGp009, Google Earth","NGA-WPI-Pub150, NGp008, NGp010, NGp009",Rivers,46210,POINT (779795.1480772065 526767.9597892488),port954,port,Port Harcourt_Nigeria,NGA,AF,852.5215431947154,Y
NGp09,NGp09c,Nigeria,Port Harcourt,<Null>,Bulk Commodities Port,4.758376,7.005019,E,Y,Coal,Unspecified,-999.0,NA,<Null>,Anambra State,Ports & Terminal Operators Ltd. (PTOL),Nigerian Ports Authority,https://nigerianports.gov.ng/,<Null>,<Null>,"NGA-WPI-Pub150, NGp008, NGp009, Google Earth","NGA-WPI-Pub150, NGp008, NGp010, NGp009",Rivers,46210,POINT (779795.1480772065 526767.9597892488),port954,port,Port Harcourt_Nigeria,NGA,AF,852.5215431947154,Y
NGp09,NGp09e,Nigeria,Port Harcourt,<Null>,Bulk Commodities Port,4.758376,7.005019,E,Y,Columbite,Unspecified,-999.0,NA,<Null>,Jos Plateau,Ports & Terminal Operators Ltd. (PTOL),Nigerian Ports Authority,https://nigerianports.gov.ng/,<Null>,<Null>,"NGA-WPI-Pub150, NGp008, NGp009, Google Earth","NGA-WPI-Pub150, NGp008, NGp010, NGp009",Rivers,46210,POINT (779795.1480772065 526767.9597892488),port954,port,Port Harcourt_Nigeria,NGA,AF,852.5215431947154,Y
NGp09,NGp09b,Nigeria,Port Harcourt,<Null>,Oil and Gas Terminal,4.758376,7.005019,E,Y,"Oil and Gas Products, Refined","Diesel, Dual Purpose Kerosene (DPK), Petrol, Base Oil",-999.0,NA,<Null>,<Null>,BUA Port and Terminals Ltd,Nigerian Ports Authority,https://nigerianports.gov.ng/,<Null>,<Null>,"NGA-WPI-Pub150, NGp008, NGp009, Google Earth","NGA-WPI-Pub150, NGp007, NGp009",Rivers,46210,POINT (779795.1480772065 526767.9597892488),port954,port,Port Harcourt_Nigeria,NGA,AF,852.5215431947154,Y
NGp09,NGp09a,Nigeria,Port Harcourt,<Null>,Oil and Gas Terminal,4.758376,7.005019,E,Y,Oil and Gas Products,Crude Oil,-999.0,NA,<Null>,<Null>,Ports & Terminal Operators Ltd. (PTOL),Nigerian Ports Authority,https://nigerianports.gov.ng/,<Null>,NGp9,"NGA-WPI-Pub150, NGp008, NGp009, Google Earth","NGA-WPI-Pub150, NGp008, NGp010, NGp009",Rivers,46210,POINT (779795.1480772065 526767.9597892488),port954,port,Port Harcourt_Nigeria,NGA,AF,852.5215431947154,Y
GNp02,GNp02a,Guinea,Kamsar,<Null>,Bulk Commodities Port,10.644509,-14.613841,E,N,Aluminum,Bauxite (Bulk),-999.0,NA,<Null>,<Null>,Abu Dhabi Ports,Office d'Amenagement de Boke (OFAB),<Null>,China and other Markets,GNp2,"NGA-WPI-Pub150, Google Maps","NGA-WPI-Pub150, GNp003",Boké,45850,POINT (-1626805.3386538639 1183929.5840851432),port536,port,Kamsar_Guinea,GIN,AF,884.8050816136354,Y
EGp05,EGp05b,Egypt,Damietta,<Null>,Oil and Gas Terminal,31.455324,31.760809,E,Y,Oil and Gas Products,Unspecified Liquid Bulk,2.0,Million metric tons,<Null>,<Null>,Damietta Port Authority,Damietta Port Authority,https://www.dpa.gov.eg/,<Null>,<Null>,"NGA-WPI-Pub150, Google Maps","NGA-WPI-Pub150, EGp005",Dumyat (Damietta),45151,POINT (3535597.0850624205 3669729.254938156),port274,port,Damietta_Egypt,EGY,AF,897.1683515202989,Y
EGp05,EGp05a,Egypt,Damietta,<Null>,Oil and Gas Terminal,31.455324,31.760809,E,Y,Oil and Gas Products,Unspecified,6.5,Million metric tons,<Null>,<Null>,Damietta Port Authority,Damietta Port Authority,https://www.dpa.gov.eg/,<Null>,EGp5,"NGA-WPI-Pub150, Google Maps","NGA-WPI-Pub150, EGp005",Dumyat (Damietta),45151,POINT (3535597.0850624205 3669729.254938156),port274,port,Damietta_Egypt,EGY,AF,897.1683515202989,Y
MUp01,MUp01a,Mauritius,Port Louis,<Null>,Oil and Gas Terminal,-20.143158,57.490517,E,Y,"Oil and Gas Products, Refined","White Oil (Motor Gasoline, Ethanol, Gas Oil, Aviation Fuel), Fuel Oil, Liquefied Petroleum Gas (LPG)",1.5,Million metric tons,<Null>,<Null>,<Null>,Mauritius Ports Authority (MPA),http://www.mauport.com/,"Indian Ocean Islands, East Africa",MUp1,"NGA-WPI-Pub150, Google Maps","NGA-WPI-Pub150, MUp001, MUp003",Port Louis,47720,POINT (6399815.077882037 -2275290.1300510736),port965,port,Port Louis_Mauritius,MUS,AF,947.7402837396967,Y
MUp01,MUp01c,Mauritius,Port Louis,<Null>,Bulk Commodities Port,-20.143158,57.490517,E,Y,Coal,Dry Bulk Cargo,-999.0,NA,<Null>,<Null>,<Null>,Mauritius Ports Authority (MPA),http://www.mauport.com/,<Null>,<Null>,"NGA-WPI-Pub150, Google Maps","NGA-WPI-Pub150, MUp001",Port Louis,47720,POINT (6399815.077882037 -2275290.1300510736),port965,port,Port Louis_Mauritius,MUS,AF,947.7402837396967,Y
MUp01,MUp01e,Mauritius,Port Louis,<Null>,General Cargo Port,-20.143158,57.490517,E,Y,Chemical Products,Caustic Soda,1000.0,Metric tons (storage),<Null>,<Null>,<Null>,Mauritius Ports Authority (MPA),http://www.mauport.com/,<Null>,<Null>,"NGA-WPI-Pub150, Google Maps","NGA-WPI-Pub150, MUp001, MUp002",Port Louis,47720,POINT (6399815.077882037 -2275290.1300510736),port965,port,Port Louis_Mauritius,MUS,AF,947.7402837396967,Y
MUp01,MUp01b,Mauritius,Port Louis,<Null>,Bulk Commodities Port,-20.143158,57.490517,E,Y,Cement,Dry Bulk Cargo,95500.0,Metric tons (storage),<Null>,<Null>,Holcim ( Mauritius) Ltd. and Lafarge ( Mauritius) Cement Ltd,Mauritius Ports Authority (MPA),http://www.mauport.com/,<Null>,<Null>,"NGA-WPI-Pub150, Google Maps","NGA-WPI-Pub150, MUp001, MUp002",Port Louis,47720,POINT (6399815.077882037 -2275290.1300510736),port965,port,Port Louis_Mauritius,MUS,AF,947.7402837396967,Y
MUp01,MUp01d,Mauritius,Port Louis,<Null>,Bulk Commodities Port,-20.143158,57.490517,E,Y,Fertilizer,Unspecified (Dry Bulk),-999.0,NA,<Null>,<Null>,The Mauritius Chemical and Fertilizer Industry Ltd and Island Fertilizer Ltd.,Mauritius Ports Authority (MPA),http://www.mauport.com/,<Null>,<Null>,"NGA-WPI-Pub150, Google Maps","NGA-WPI-Pub150, MUp001, MUp002",Port Louis,47720,POINT (6399815.077882037 -2275290.1300510736),port965,port,Port Louis_Mauritius,MUS,AF,947.7402837396967,Y
DZp04,DZp04a,Algeria,Bejaia,<Null>,Oil and Gas Terminal,36.751575,5.08693,E,N,Oil and Gas Products,Oil (Unspecified),-999.0,NA,<Null>,<Null>,<Null>,Entreprise Portuaire de Bejaia,https://portdebejaia.dz/,<Null>,DZp4,"NGA-WPI-Pub150, DZp006, Google Earth","NGA-WPI-Pub150, DZp006, DZp007",Béjaïa,45550,POINT (566274.457301027 4378967.435324067),port138,port,Bejaia_Algeria,DZA,AF,973.441575420963,Y
MZp01,MZp01g,Mozambique,Beira,<Null>,Bulk Commodities Port,-19.818507,34.835331,E,Y,Iron and Steel,Steel (Unspecified),-999.0,NA,<Null>,<Null>,Cornelder de Moçambique (CdM),"Portos e Caminhos de Ferro de Moçambique, E.P.",https://www.cfm.co.mz/index.php/pt/,<Null>,<Null>,"NGA-WPI-Pub150, Google Maps","NGA-WPI-Pub150, MZp009, MZp008, MZp012",Sofala,46890,POINT (3877851.3085351367 -2237062.927029982),port137,port,Beira_Mozambique,MOZ,AF,1008.443997666372,Y
MZp01,MZp01d,Mozambique,Beira,<Null>,Oil and Gas Terminal,-19.818507,34.835331,E,Y,"Oil and Gas Products, Refined","Fuel, Diesel, Jet Oil, Petroleum",3.0,Million metric tons,<Null>,<Null>,Cornelder de Moçambique (CdM),"Portos e Caminhos de Ferro de Moçambique, E.P.",https://www.cfm.co.mz/index.php/pt/,<Null>,<Null>,"NGA-WPI-Pub150, Google Maps","NGA-WPI-Pub150, MZp010, MZp012",Sofala,46890,POINT (3877851.3085351367 -2237062.927029982),port137,port,Beira_Mozambique,MOZ,AF,1008.443997666372,Y
MZp01,MZp01h,Mozambique,Beira,<Null>,Bulk Commodities Port,-19.818507,34.835331,E,Y,Dimension Stone,Granite,-999.0,NA,<Null>,<Null>,Cornelder de Moçambique (CdM),"Portos e Caminhos de Ferro de Moçambique, E.P.",https://www.cfm.co.mz/index.php/pt/,<Null>,<Null>,"NGA-WPI-Pub150, Google Maps","NGA-WPI-Pub150, MZp009, MZp008, MZp012",Sofala,46890,POINT (3877851.3085351367 -2237062.927029982),port137,port,Beira_Mozambique,MOZ,AF,1008.443997666372,Y
MZp01,MZp01f,Mozambique,Beira,<Null>,Bulk Commodities Port,-19.818507,34.835331,E,Y,Copper,Unspecified,-999.0,NA,<Null>,<Null>,Cornelder de Moçambique (CdM),"Portos e Caminhos de Ferro de Moçambique, E.P.",https://www.cfm.co.mz/index.php/pt/,<Null>,<Null>,"NGA-WPI-Pub150, Google Maps","NGA-WPI-Pub150, MZp009, TZp004, MZp012",Sofala,46890,POINT (3877851.3085351367 -2237062.927029982),port137,port,Beira_Mozambique,MOZ,AF,1008.443997666372,Y
MZp01,MZp01e,Mozambique,Beira,<Null>,General Cargo Port,-19.818507,34.835331,E,Y,Fertilizer,Ammonium Nitrate,-999.0,NA,<Null>,<Null>,Cornelder de Moçambique (CdM),"Portos e Caminhos de Ferro de Moçambique, E.P.",https://www.cfm.co.mz/index.php/pt/,<Null>,<Null>,"NGA-WPI-Pub150, Google Maps","NGA-WPI-Pub150, MZp009, MZp012",Sofala,46890,POINT (3877851.3085351367 -2237062.927029982),port137,port,Beira_Mozambique,MOZ,AF,1008.443997666372,Y
MZp01,MZp01c,Mozambique,Beira,<Null>,Bulk Commodities Port,-19.818507,34.835331,E,Y,Coal,Unspecified (Bulk),6.0,Million metric tons,<Null>,Moatize Region of Tete Province,Cornelder de Moçambique (CdM),"Portos e Caminhos de Ferro de Moçambique, E.P.",https://www.cfm.co.mz/index.php/pt/,<Null>,<Null>,"NGA-WPI-Pub150, Google Maps","NGA-WPI-Pub150, MZp009, MZp008, MZp012",Sofala,46890,POINT (3877851.3085351367 -2237062.927029982),port137,port,Beira_Mozambique,MOZ,AF,1008.443997666372,Y
MZp01,MZp01b,Mozambique,Beira,<Null>,Bulk Commodities Port,-19.818507,34.835331,E,Y,Chromium,Chrome Ore,-999.0,NA,<Null>,<Null>,Cornelder de Moçambique (CdM),"Portos e Caminhos de Ferro de Moçambique, E.P.",https://www.cfm.co.mz/index.php/pt/,<Null>,<Null>,"NGA-WPI-Pub150, Google Maps","NGA-WPI-Pub150, MZp009, TZp004, MZp012",Sofala,46890,POINT (3877851.3085351367 -2237062.927029982),port137,port,Beira_Mozambique,MOZ,AF,1008.443997666372,Y
MZp01,MZp01a,Mozambique,Beira,<Null>,Bulk Commodities Port,-19.818507,34.835331,E,Y,Ferroalloys,Ferrochrome,-999.0,NA,<Null>,<Null>,Cornelder de Moçambique (CdM),"Portos e Caminhos de Ferro de Moçambique, E.P.",https://www.cfm.co.mz/index.php/pt/,<Null>,MZp1,"NGA-WPI-Pub150, Google Maps","NGA-WPI-Pub150, MZp009, MZp008, MZp012",Sofala,46890,POINT (3877851.3085351367 -2237062.927029982),port137,port,Beira_Mozambique,MOZ,AF,1008.443997666372,Y
LRp01,LRp01a,Liberia,Buchanan,<Null>,Bulk Commodities Port,5.858548,-10.050165,E,N,Iron and Steel,Iron Ore,-999.0,NA,<Null>,"Mount Tokadeh Deposit at Yekepa, Nimba County",ArcelorMittal,National Port Authority of Liberia (NPA),http://www.npaliberia.com/,"European Steel Plants, Asia Open Market",LRp1,"NGA-WPI-Pub150, Google Maps","NGA-WPI-Pub150, LRp002, LRp003, LRp004, LRp005, LRp006, LRp007, LRp008",GrandBassa,45950,POINT (-1118779.2501883802 648951.6195599113),port181,port,Buchanan_Liberia,LBR,AF,1038.4719524948584,Y
ZAp03,ZAp03b,South Africa,East London,<Null>,Bulk Commodities Port,-33.024996,27.909525,E,Y,Scrap Metal,Unspecified,210000.0,Metrict tons,"Shared capacity: ZAp03b, ZAp03c",<Null>,Transnet Port Terminals,Transnet National Port Authority,https://www.transnetnationalportsauthority.net/Pages/default.aspx,<Null>,<Null>,"NGA-WPI-Pub150, Google Maps, ZAp005","NGA-WPI-Pub150, ZAp003, ZAp007, ZAp008",Eastern Cape,46830,POINT (3106874.111282138 -3875336.3528763293),port315,port,East London_South Africa,ZAF,AF,1046.3511128752036,Y
ZAp03,ZAp03c,South Africa,East London,<Null>,Bulk Commodities Port,-33.024996,27.909525,E,Y,Chemical Products,Unspecified,210000.0,Metrict tons,"Shared capacity: ZAp03b, ZAp03c",<Null>,Transnet Port Terminals,Transnet National Port Authority,https://www.transnetnationalportsauthority.net/Pages/default.aspx,<Null>,<Null>,"NGA-WPI-Pub150, Google Maps, ZAp005","NGA-WPI-Pub150, ZAp003, ZAp007, ZAp008",Eastern Cape,46830,POINT (3106874.111282138 -3875336.3528763293),port315,port,East London_South Africa,ZAF,AF,1046.3511128752036,Y
ZAp03,ZAp03a,South Africa,East London,<Null>,Bulk Commodities Port,-33.024996,27.909525,E,Y,Copper,Unspecified (Bulk),-999.0,NA,<Null>,Zambia,Transnet Port Terminals,Transnet National Port Authority,https://www.transnetnationalportsauthority.net/Pages/default.aspx,China,ZAp3,"NGA-WPI-Pub150, Google Maps, ZAp004","NGA-WPI-Pub150, ZAp003, ZAp008, ZAp018",Eastern Cape,46830,POINT (3106874.111282138 -3875336.3528763293),port315,port,East London_South Africa,ZAF,AF,1046.3511128752036,Y
MAp06,MAp06b,Morocco,Port Nador,<Null>,Oil and Gas Terminal,35.276804,-2.917286,E,Y,"Oil and Gas Products, Refined","Gas, Oil, Butane",-999.0,NA,<Null>,<Null>,<Null>,Societe d'Exploitation des Ports SA (SODEP),https://www.marsamaroc.co.ma,<Null>,<Null>,"NGA-WPI-Pub150, Google Maps","NGA-WPI-Pub150, MAp003",Oriental,45762,POINT (-324750.79201834585 4176884.173761179),port971,port,Port Nador_Morocco,MAR,AF,1112.4069465979283,Y
MAp06,MAp06a,Morocco,Port Nador,<Null>,Bulk Commodities Port,35.276804,-2.917286,E,Y,Ores,"Clay, Lead, Barium (Barite), and Bentonite",-999.0,NA,<Null>,<Null>,<Null>,Societe d'Exploitation des Ports SA (SODEP),https://www.marsamaroc.co.ma,<Null>,MAp6,"NGA-WPI-Pub150, Google Maps","NGA-WPI-Pub150, MAp003",Oriental,45762,POINT (-324750.79201834585 4176884.173761179),port971,port,Port Nador_Morocco,MAR,AF,1112.4069465979283,Y
LYp05,LYp05a,Libya,Tripoli,Mina Tarabulus,General Cargo Port,32.904334,13.190503,E,Y,Chemical Products,Unspecified,-999.0,NA,<Null>,<Null>,Libyan Ports Company (Socialist Ports Company),Libyan Ports Company (Socialist Ports Company),https://www.lpclibya.com/,<Null>,LYp5,"NGA-WPI-Pub150, Google Maps","NGA-WPI-Pub150, LYp001, LYp010",Tripoli,45330,POINT (1468360.0772671474 3859402.4862762783),port748,port,Mina Tarabulus (Tripoli)_Libya,LBY,AF,1122.9730138477344,Y
LYp05,LYp05b,Libya,Tripoli,Mina Tarabulus,Oil and Gas Terminal,32.904334,13.190503,E,Y,Oil and Gas Products,Crude Oil,-999.0,NA,<Null>,<Null>,Libyan Ports Company (Socialist Ports Company),Libyan Ports Company (Socialist Ports Company),https://www.lpclibya.com/,<Null>,<Null>,"NGA-WPI-Pub150, Google Maps","NGA-WPI-Pub150, LYp001, LYp010",Tripoli,45330,POINT (1468360.0772671474 3859402.4862762783),port748,port,Mina Tarabulus (Tripoli)_Libya,LBY,AF,1122.9730138477344,Y
LYp05,LYp05d,Libya,Tripoli,Mina Tarabulus,Oil and Gas Terminal,32.904334,13.190503,E,Y,Oil and Gas Products,Natural Gas,-999.0,NA,<Null>,<Null>,Libyan Ports Company (Socialist Ports Company),Libyan Ports Company (Socialist Ports Company),https://www.lpclibya.com/,<Null>,<Null>,"NGA-WPI-Pub150, Google Maps","NGA-WPI-Pub150, LYp001, LYp010",Tripoli,45330,POINT (1468360.0772671474 3859402.4862762783),port748,port,Mina Tarabulus (Tripoli)_Libya,LBY,AF,1122.9730138477344,Y
LYp05,LYp05c,Libya,Tripoli,Mina Tarabulus,Oil and Gas Terminal,32.904334,13.190503,E,Y,"Oil and Gas Products, Refined",Refined Petroleum Products,-999.0,NA,<Null>,<Null>,Libyan Ports Company (Socialist Ports Company),Libyan Ports Company (Socialist Ports Company),https://www.lpclibya.com/,<Null>,<Null>,"NGA-WPI-Pub150, Google Maps","NGA-WPI-Pub150, LYp001, LYp010",Tripoli,45330,POINT (1468360.0772671474 3859402.4862762783),port748,port,Mina Tarabulus (Tripoli)_Libya,LBY,AF,1122.9730138477344,Y
AGp02,AGp02b,Angola,Lobito,<Null>,Bulk Commodities Port,-12.347971,13.575202,E,Y,Ores,Unspecified (Containerized or Bulk),-999.0,NA,<Null>,<Null>,<Null>,"Empresa Portuaria Do Lobito, E.P.",<Null>,<Null>,<Null>,"NGA-WPI-Pub150, Google Earth","NGA-WPI-Pub150, AGp009",Benguela,46590,POINT (1511184.574055829 -1376203.8153071613),port656,port,Lobito_Angola,AGO,AF,1187.2291164097933,Y
AGp02,AGp02a,Angola,Lobito,<Null>,Bulk Commodities Port,-12.347971,13.575202,E,Y,Copper,Unspecified,-999.0,NA,<Null>,Congo (Kinshasa),<Null>,"Empresa Portuaria Do Lobito, E.P.",<Null>,<Null>,AGp2,"NGA-WPI-Pub150, Google Earth","NGA-WPI-Pub150, AGp009",Benguela,46590,POINT (1511184.574055829 -1376203.8153071613),port656,port,Lobito_Angola,AGO,AF,1187.2291164097933,Y
AGp02,AGp02c,Angola,Lobito,<Null>,Oil and Gas Terminal,-12.347971,13.575202,E,Y,Oil and Gas Products,Oil (Unspecified),-999.0,NA,<Null>,<Null>,<Null>,"Empresa Portuaria Do Lobito, E.P.",<Null>,<Null>,<Null>,"NGA-WPI-Pub150, Google Earth","NGA-WPI-Pub150, AGp009",Benguela,46590,POINT (1511184.574055829 -1376203.8153071613),port656,port,Lobito_Angola,AGO,AF,1187.2291164097933,Y
ZAp02,ZAp02e,South Africa,Durban,<Null>,Bulk Commodities Port,-29.891513,31.024477,E,Y,Dimension Stone,Granite,-999.0,NA,<Null>,<Null>,Transnet Port Terminals,Transnet National Port Authority,https://www.transnetnationalportsauthority.net/Pages/default.aspx,<Null>,<Null>,"NGA-WPI-Pub150, Google Maps, ZAp005","NGA-WPI-Pub150, ZAp003, WRLDp001, ZAp006",KwaZulu-Natal,46850,POINT (3453628.981767628 -3468321.8715541903),port311,port,Durban_South Africa,ZAF,AF,1209.5890892486243,Y
ZAp02,ZAp02g,South Africa,Durban,<Null>,Bulk Commodities Port,-29.891513,31.024477,E,Y,Chromium,Chrome Ore,32000.0,Metric tons,"Shared capacity: ZAp02d, ZAp02g, ZAp02h",<Null>,Bulk Connections,Transnet National Port Authority,https://www.transnetnationalportsauthority.net/Pages/default.aspx,<Null>,<Null>,"NGA-WPI-Pub150, Google Maps, ZAp007","NGA-WPI-Pub150, ZAp003, WRLDp001, ZAp006",KwaZulu-Natal,46850,POINT (3453628.981767628 -3468321.8715541903),port311,port,Durban_South Africa,ZAF,AF,1209.5890892486243,Y
ZAp02,ZAp02i,South Africa,Durban,<Null>,Bulk Commodities Port,-29.891513,31.024477,E,Y,Copper,Unspecified,-999.0,NA,<Null>,Southeast Congo (Kinshasa),Bluff Coal Loading Appliance (Rennies Facility) & Berths,Transnet National Port Authority,https://www.transnetnationalportsauthority.net/Pages/default.aspx,<Null>,<Null>,"NGA-WPI-Pub150, Google Maps, ZAp009","NGA-WPI-Pub150, CDp002, ZAp018",KwaZulu-Natal,46850,POINT (3453628.981767628 -3468321.8715541903),port311,port,Durban_South Africa,ZAF,AF,1209.5890892486243,Y
ZAp02,ZAp02b,South Africa,Durban,<Null>,Bulk Commodities Port,-29.891513,31.024477,E,Y,Fertilizer,Monocalcium Phosphate (MCP),32000.0,Metric tons,"Shared capacity: ZAp02d, ZAp02g, ZAp02h",<Null>,Bulk Connections,Transnet National Port Authority,https://www.transnetnationalportsauthority.net/Pages/default.aspx,<Null>,<Null>,"NGA-WPI-Pub150, Google Maps, ZAp007","NGA-WPI-Pub150, ZAp003, WRLDp001, ZAp006",KwaZulu-Natal,46850,POINT (3453628.981767628 -3468321.8715541903),port311,port,Durban_South Africa,ZAF,AF,1209.5890892486243,Y
ZAp02,ZAp02f,South Africa,Durban,<Null>,Bulk Commodities Port,-29.891513,31.024477,E,Y,Andalusite,Unspecified,32000.0,Metric tons,"Shared capacity: ZAp02d, ZAp02g, ZAp02h",<Null>,Bulk Connections,Transnet National Port Authority,https://www.transnetnationalportsauthority.net/Pages/default.aspx,<Null>,<Null>,"NGA-WPI-Pub150, Google Maps, ZAp007","NGA-WPI-Pub150, ZAp003, WRLDp001, ZAp006",KwaZulu-Natal,46850,POINT (3453628.981767628 -3468321.8715541903),port311,port,Durban_South Africa,ZAF,AF,1209.5890892486243,Y
ZAp02,ZAp02d,South Africa,Durban,<Null>,Bulk Commodities Port,-29.891513,31.024477,E,Y,Iron and Steel,"Steel (Unspecified), Ferroalloys (Unspecified), Scrap Metal",-999.0,NA,<Null>,<Null>,Transnet Port Terminals,Transnet National Port Authority,https://www.transnetnationalportsauthority.net/Pages/default.aspx,<Null>,<Null>,"NGA-WPI-Pub150, Google Maps, ZAp004","NGA-WPI-Pub150, ZAp003, WRLDp001, ZAp006",KwaZulu-Natal,46850,POINT (3453628.981767628 -3468321.8715541903),port311,port,Durban_South Africa,ZAF,AF,1209.5890892486243,Y
ZAp02,ZAp02a,South Africa,Durban,<Null>,Oil and Gas Terminal,-29.891513,31.024477,E,Y,Oil and Gas Products,Liquid Bulk and Petroleum Products,-999.0,NA,<Null>,<Null>,Sapref/Engen/Total,Transnet National Port Authority,https://www.transnetnationalportsauthority.net/Pages/default.aspx,Johannesburg,<Null>,"NGA-WPI-Pub150, Google Maps, ZAp006","NGA-WPI-Pub150, ZAp003, WRLDp001, ZAp006",KwaZulu-Natal,46850,POINT (3453628.981767628 -3468321.8715541903),port311,port,Durban_South Africa,ZAF,AF,1209.5890892486243,Y
ZAp02,ZAp02c,South Africa,Durban,<Null>,Bulk Commodities Port,-29.891513,31.024477,E,Y,Salt,Unspecified,-999.0,NA,<Null>,<Null>,Transnet Port Terminals,Transnet National Port Authority,https://www.transnetnationalportsauthority.net/Pages/default.aspx,<Null>,<Null>,"NGA-WPI-Pub150, Google Maps, ZAp004","NGA-WPI-Pub150, ZAp003, WRLDp001, ZAp006",KwaZulu-Natal,46850,POINT (3453628.981767628 -3468321.8715541903),port311,port,Durban_South Africa,ZAF,AF,1209.5890892486243,Y
ZAp02,ZAp02h,South Africa,Durban,<Null>,Bulk Commodities Port,-29.891513,31.024477,E,Y,Coal,Unspecified,-999.0,NA,<Null>,"Coal from Mines in Mpumalanga, Kwazulu-Natal, Free State",Bluff Coal Loading Appliance (Rennies Facility) & Berths,Transnet National Port Authority,https://www.transnetnationalportsauthority.net/Pages/default.aspx,<Null>,<Null>,"NGA-WPI-Pub150, Google Maps, ZAp008","NGA-WPI-Pub150, ZAp016, ZAp003, WRLDp001, ZAp006",KwaZulu-Natal,46850,POINT (3453628.981767628 -3468321.8715541903),port311,port,Durban_South Africa,ZAF,AF,1209.5890892486243,Y
LYp01,LYp01b,Libya,Marsa el Brega,Al Burayqah,Oil and Gas Terminal,30.416667,19.6,E,Y,"Oil and Gas Products, Refined","Petrochemicals (Methanol, Ammonia)",-999.0,NA,<Null>,Zelten Oil Field,Sirte Oil Company,Libyan Ports Company (Socialist Ports Company),https://www.lpclibya.com/,<Null>,<Null>,"NGA-WPI-Pub150, Google Maps","NGA-WPI-Pub150, LYp004, LYp005, LYp004",Al Wahat,45295,POINT (2181862.0195481624 3535592.1744030262),port21,port,Al Burayqah_Libya,LBY,AF,1246.4689371776303,Y
LYp01,LYp01d,Libya,Marsa el Brega,Al Burayqah,General Cargo Port,30.416667,19.6,E,Y,Chemical Products,Sulfuric Acid,-999.0,NA,<Null>,<Null>,Sirte Oil Company,Libyan Ports Company (Socialist Ports Company),https://www.lpclibya.com/,<Null>,<Null>,"NGA-WPI-Pub150, Google Maps","NGA-WPI-Pub150, LYp004",Al Wahat,45295,POINT (2181862.0195481624 3535592.1744030262),port21,port,Al Burayqah_Libya,LBY,AF,1246.4689371776303,Y
LYp01,LYp01c,Libya,Marsa el Brega,Al Burayqah,Oil and Gas Terminal,30.416667,19.6,E,Y,Oil and Gas Products,"Liquefied Petroleum Gas (LPG), Liquefied Natural Gas (LNG)",-999.0,NA,<Null>,Attahadi Field and Zelten Field,Sirte Oil Company,Libyan Ports Company (Socialist Ports Company),https://www.lpclibya.com/,<Null>,<Null>,"NGA-WPI-Pub150, Google Maps","NGA-WPI-Pub150, LYp004, LYp005, LYp005",Al Wahat,45295,POINT (2181862.0195481624 3535592.1744030262),port21,port,Al Burayqah_Libya,LBY,AF,1246.4689371776303,Y
LYp01,LYp01a,Libya,Marsa el Brega,Al Burayqah,Oil and Gas Terminal,30.416667,19.6,E,Y,Oil and Gas Products,"Crude Oil, Refined Oil Products",-999.0,NA,<Null>,Zelten Oil Field,National Oil Corp. (NOC),Libyan Ports Company (Socialist Ports Company),https://www.lpclibya.com/,<Null>,LYp1,"NGA-WPI-Pub150, Google Maps","NGA-WPI-Pub150, LYp004, LYp005, LYp003",Al Wahat,45295,POINT (2181862.0195481624 3535592.1744030262),port21,port,Al Burayqah_Libya,LBY,AF,1246.4689371776303,Y
MAp01,MAp01d,Morocco,Agadir,<Null>,Bulk Commodities Port,30.428969,-9.647401,E,Y,Cement,"Clinker, Ores",-999.0,NA,<Null>,<Null>,<Null>,Societe d'Exploitation des Ports SA (SODEP),https://www.marsamaroc.co.ma,<Null>,<Null>,"NGA-WPI-Pub150, Google Maps","NGA-WPI-Pub150, MAp009",Souss - Massa - Draâ,45802,POINT (-1073943.7667985184 3537172.3723518457),port10,port,Agadir_Morocco,MAR,AF,1249.9285815441538,Y
MAp01,MAp01a,Morocco,Agadir,<Null>,Bulk Commodities Port,30.428969,-9.647401,E,Y,Coal,Unspecified,-999.0,NA,<Null>,<Null>,<Null>,Societe d'Exploitation des Ports SA (SODEP),https://www.marsamaroc.co.ma,<Null>,MAp1,"NGA-WPI-Pub150, Google Maps","NGA-WPI-Pub150, MAp009",Souss - Massa - Draâ,45802,POINT (-1073943.7667985184 3537172.3723518457),port10,port,Agadir_Morocco,MAR,AF,1249.9285815441538,Y
MAp01,MAp01c,Morocco,Agadir,<Null>,General Cargo Port,30.428969,-9.647401,E,Y,Chemical Products,Sulfuric Acid,-999.0,NA,<Null>,<Null>,<Null>,Societe d'Exploitation des Ports SA (SODEP),https://www.marsamaroc.co.ma,<Null>,<Null>,"NGA-WPI-Pub150, Google Maps","NGA-WPI-Pub150, MAp009",Souss - Massa - Draâ,45802,POINT (-1073943.7667985184 3537172.3723518457),port10,port,Agadir_Morocco,MAR,AF,1249.9285815441538,Y
MAp01,MAp01b,Morocco,Agadir,<Null>,Oil and Gas Terminal,30.428969,-9.647401,E,Y,Oil and Gas Products,Unspecified,-999.0,NA,<Null>,<Null>,<Null>,Societe d'Exploitation des Ports SA (SODEP),https://www.marsamaroc.co.ma,<Null>,<Null>,"NGA-WPI-Pub150, Google Maps","NGA-WPI-Pub150, MAp009",Souss - Massa - Draâ,45802,POINT (-1073943.7667985184 3537172.3723518457),port10,port,Agadir_Morocco,MAR,AF,1249.9285815441538,Y
EHp01,EHp01a,Western Sahara,Ad Dakhla,Port of Villa Cisneros,Oil and Gas Terminal,23.659338,-15.944811,E,N,Oil and Gas Products,Oil (Unspecified),-999.0,NA,<Null>,<Null>,<Null>,Societe d'Exploitation des Ports SA (SODEP),www.marsamaroc.co.ma,<Null>,EHp1,"NGA-WPI-Pub150, Google Maps","NGA-WPI-Pub150, EHp001",Oued el Dahab,45808,POINT (-1774968.2413149872 2694810.9197233804),port8,port,Ad Dakhla_Western Sahara,ESH,AF,1358.9637088165211,Y
DZp04,DZp04b,Algeria,Port of Bethioua,<Null>,Bulk Commodities Port,35.812267,-0.258678,E,Y,Fertilizer,Liquid Ammonia,-999.0,NA,<Null>,<Null>,<Null>,Entreprise Portuaire d'Arzew,http://www.arzewports.dz/index.php,<Null>,<Null>,"Google Earth, DZp020",DZp020,Oran,N/A,POINT (-28795.903239422423 4249817.3938539475),port70,port,Arzew El Djedid_Algeria,DZA,AF,1377.7946681986946,Y
ZAp08,ZAp08b,South Africa,Saldanha Bay,<Null>,Bulk Commodities Port,-33.004957,17.99836,E,Y,Iron and Steel,"Steel Coils, Other Unspecified Steel",3.0,Million metric tons,"Shared capacity: ZAp08b, ZAp08c, ZAp08d, ZAp08e, ZAp08f",<Null>,<Null>,Transnet National Port Authority,https://www.transnetnationalportsauthority.net/Pages/default.aspx,<Null>,<Null>,"NGA-WPI-Pub150, Google Maps, ZAp005","NGA-WPI-Pub150, ZAp001, ZAp003, WRLDp001, WRLDp002, ZAp014, ZAp015",Western Cape,46750,POINT (2003568.2703140234 -3872688.606071641),port1133,port,Saldanha Bay_South Africa,ZAF,AF,1408.0793722185047,Y
ZAp08,ZAp08e,South Africa,Saldanha Bay,<Null>,Bulk Commodities Port,-33.004957,17.99836,E,Y,Copper,Concentrate,3.0,Million metric tons,"Shared capacity: ZAp08b, ZAp08c, ZAp08d, ZAp08e, ZAp08f",<Null>,<Null>,Transnet National Port Authority,https://www.transnetnationalportsauthority.net/Pages/default.aspx,<Null>,<Null>,"NGA-WPI-Pub150, Google Maps, ZAp005","NGA-WPI-Pub150, ZAp001, ZAp003, WRLDp001, WRLDp002, ZAp014, ZAp015",Western Cape,46750,POINT (2003568.2703140234 -3872688.606071641),port1133,port,Saldanha Bay_South Africa,ZAF,AF,1408.0793722185047,Y
ZAp08,ZAp08d,South Africa,Saldanha Bay,<Null>,Bulk Commodities Port,-33.004957,17.99836,E,Y,Lead,Concentrate,3.0,Million metric tons,"Shared capacity: ZAp08b, ZAp08c, ZAp08d, ZAp08e, ZAp08f",<Null>,<Null>,Transnet National Port Authority,https://www.transnetnationalportsauthority.net/Pages/default.aspx,<Null>,<Null>,"NGA-WPI-Pub150, Google Maps, ZAp005","NGA-WPI-Pub150, ZAp001, ZAp003, WRLDp001, WRLDp002, ZAp014, ZAp015",Western Cape,46750,POINT (2003568.2703140234 -3872688.606071641),port1133,port,Saldanha Bay_South Africa,ZAF,AF,1408.0793722185047,Y
ZAp08,ZAp08c,South Africa,Saldanha Bay,<Null>,Bulk Commodities Port,-33.004957,17.99836,E,Y,Heavy Mineral Sands,Unspecified,3.0,Million metric tons,"Shared capacity: ZAp08b, ZAp08c, ZAp08d, ZAp08e, ZAp08f",<Null>,<Null>,Transnet National Port Authority,https://www.transnetnationalportsauthority.net/Pages/default.aspx,<Null>,<Null>,"NGA-WPI-Pub150, Google Maps, ZAp005","NGA-WPI-Pub150, ZAp001, ZAp003, WRLDp001, WRLDp002, ZAp014, ZAp015",Western Cape,46750,POINT (2003568.2703140234 -3872688.606071641),port1133,port,Saldanha Bay_South Africa,ZAF,AF,1408.0793722185047,Y
ZAp08,ZAp08f,South Africa,Saldanha Bay,<Null>,Bulk Commodities Port,-33.004957,17.99836,E,Y,Dimension Stone,Granite,3.0,Million metric tons,"Shared capacity: ZAp08b, ZAp08c, ZAp08d, ZAp08e, ZAp08f",<Null>,<Null>,Transnet National Port Authority,https://www.transnetnationalportsauthority.net/Pages/default.aspx,<Null>,<Null>,"NGA-WPI-Pub150, Google Maps, ZAp005","NGA-WPI-Pub150, ZAp001, ZAp003, WRLDp001, WRLDp002, ZAp014, ZAp015",Western Cape,46750,POINT (2003568.2703140234 -3872688.606071641),port1133,port,Saldanha Bay_South Africa,ZAF,AF,1408.0793722185047,Y
ZAp08,ZAp08a,South Africa,Saldanha Bay,<Null>,Bulk Commodities Port,-33.004957,17.99836,E,Y,Iron and Steel,Iron Ore,60.0,Million metric tons,<Null>,Mines Near Sishen in Northern Cape,<Null>,Transnet National Port Authority,https://www.transnetnationalportsauthority.net/Pages/default.aspx,<Null>,ZAp8,"NGA-WPI-Pub150, Google Maps, ZAp004","NGA-WPI-Pub150, ZAp001, ZAp003, WRLDp001, WRLDp002, ZAp014, ZAp015",Western Cape,46750,POINT (2003568.2703140234 -3872688.606071641),port1133,port,Saldanha Bay_South Africa,ZAF,AF,1408.0793722185047,Y
SLp02,SLp02a,Sierra Leone,Freetown,QE II Quay,Bulk Commodities Port,8.49347,-13.213234,E,N,Iron and Steel,High-Grade >65% Iron Ore Concentrate (Marampa Mine Blue Hematite),-999.0,NA,<Null>,Marampa Mine,SL Mining,Sierra Leone Ports Authority,https://www.ncpsl.gov.sl/slpa/,<Null>,SLp2,"NGA-WPI-Pub150, Google Maps","NGA-WPI-Pub150, SLp001, SLp003, SLp006",Western,45862,POINT (-1470890.4806123693 942664.1114316379),port360,port,Freetown_Sierra Leone,SLE,AF,1477.900312222345,Y
TNp05,TNp05a,Tunisia,Rades,<Null>,Oil and Gas Terminal,36.796251,10.287667,E,N,"Oil and Gas Products, Refined",Unspecified Refined Products,1.2,Million metric tons,<Null>,<Null>,<Null>,Office of Merchant Navy and Ports,http://www.ommp.nat.tn/,<Null>,TNp5,"NGA-WPI-Pub150, Google Maps","NGA-WPI-Pub150, TNp003, TNp007",Ben Arous (Tunis Sud),45432,POINT (1145217.8518907644 4385149.548178056),port1329,port,Tunis_Tunisia,TUN,AF,1483.461167149703,Y
GAp03,GAp03a,Gabon,Port Owendo,<Null>,General Cargo Port,0.284288,9.503487,E,N,Manganese,Manganese Ore,-999.0,NA,<Null>,Bangombe Plateau in Moanda,La Compagnie Minière de l'Ogooue (COMILOG),Office des Ports et Rades du Gabon,<Null>,<Null>,GAp3,"NGA-WPI-Pub150, Google Maps","NGA-WPI-Pub150, GAp006",Estuaire,46435,POINT (1057923.333600495 31435.070435700578),port973,port,Port Owendo_Gabon,GAB,AF,1490.6642975330162,Y
TNp08,TNp08a,Tunisia,Zarzis,Zarzia,Oil and Gas Terminal,33.493931,11.118576,E,N,Oil and Gas Products,Crude Oil,-999.0,NA,<Null>,<Null>,<Null>,Office of Merchant Navy and Ports,http://www.ommp.nat.tn/,<Null>,TNp8,"NGA-WPI-Pub150, TNp015, Google Earth","NGA-WPI-Pub150, TNp007, TNp015",Médenine,45365,POINT (1237714.2186663123 3937471.3802980618),port1423,port,Zarzis_Tunisia,TUN,AF,1661.5342692924835,Y
TZp01,TZp01b,Tanzania,Dar es Salaam,<Null>,Bulk Commodities Port,-6.829856,39.28864,E,Y,Copper,"Concentrate, Cathodes",-999.0,NA,<Null>,Lumwana Mine in Zambia,Tanzania International Container Terminal Services Ltd (TICTS),Tanzania Port Authority,http://www.tanzaniaports.com/index.php/en/,<Null>,<Null>,"NGA-WPI-Pub150, Google Maps","NGA-WPI-Pub150, TZp001, TZp004",Dar es Salaam,47010,POINT (4373591.39876024 -757025.2560429047),port278,port,Dar Es Salaam_Tanzania,TZA,AF,1741.6312251197353,Y
TZp01,TZp01a,Tanzania,Dar es Salaam,<Null>,Oil and Gas Terminal,-6.829856,39.28864,E,Y,Oil and Gas Products,"Crude Oil, Refined Oil Products",6.0,Million metric tons,<Null>,<Null>,Tanzania International Container Terminal Services Ltd (TICTS),Tanzania Port Authority,http://www.tanzaniaports.com/index.php/en/,<Null>,TZp1,"NGA-WPI-Pub150, Google Maps","NGA-WPI-Pub150, TZp001",Dar es Salaam,47010,POINT (4373591.39876024 -757025.2560429047),port278,port,Dar Es Salaam_Tanzania,TZA,AF,1741.6312251197353,Y
TNp03,TNp03b,Tunisia,La Goulette,<Null>,Bulk Commodities Port,36.812021,10.298899,E,N,Iron and Steel,Iron Ore,-999.0,NA,<Null>,<Null>,<Null>,Office of Merchant Navy and Ports,http://www.ommp.nat.tn/,<Null>,<Null>,"NGA-WPI-Pub150, TNp015, Google Earth","NGA-WPI-Pub150, TNp008, TNp009, TNp015",Tunis,45420,POINT (1146468.1924113545 4387332.615375387),port1329,port,Tunis_Tunisia,TUN,AF,1899.0293544817455,Y
TNp03,TNp03a,Tunisia,La Goulette,<Null>,Bulk Commodities Port,36.812021,10.298899,E,N,Fertilizer,Phosphate,-999.0,NA,<Null>,<Null>,<Null>,Office of Merchant Navy and Ports,http://www.ommp.nat.tn/,<Null>,TNp3,"NGA-WPI-Pub150, TNp015, Google Earth","NGA-WPI-Pub150, TNp008, TNp009, TNp015",Tunis,45420,POINT (1146468.1924113545 4387332.615375387),port1329,port,Tunis_Tunisia,TUN,AF,1899.0293544817455,Y
MZp03,MZp03b,Mozambique,Nacala,<Null>,Bulk Commodities Port,-14.543914,40.667676,E,Y,Coal,"Coal (Bulk), Premium Hard Coking Coal, High Calorific Thermal Coal",18.0,Million metric tons,<Null>,Coal Mined Near Moatize in Tete Province,Vale Moçambique,"Portos e Caminhos de Ferro de Moçambique, E.P.",https://www.cfm.co.mz/index.php/pt/,<Null>,<Null>,"NGA-WPI-Pub150, Google Maps","NGA-WPI-Pub150, MZp011, MZp007, MZp012",Nampula,46935,POINT (4527104.984065833 -1625969.452218387),port784,port,Nacala_Mozambique,MOZ,AF,2080.424852699517,Y
MZp03,MZp03d,Mozambique,Nacala,<Null>,General Cargo Port,-14.543914,40.667676,E,Y,Cement,Unspecified (General Cargo),-999.0,NA,<Null>,<Null>,Northern Development Corridor (CDN),"Portos e Caminhos de Ferro de Moçambique, E.P.",https://www.cfm.co.mz/index.php/pt/,<Null>,<Null>,"NGA-WPI-Pub150, Google Maps","NGA-WPI-Pub150, MZp007, MZp012",Nampula,46935,POINT (4527104.984065833 -1625969.452218387),port784,port,Nacala_Mozambique,MOZ,AF,2080.424852699517,Y
MZp03,MZp03e,Mozambique,Nacala,<Null>,Bulk Commodities Port,-14.543914,40.667676,E,Y,Mineral Products,Unspecified,-999.0,NA,<Null>,<Null>,Northern Development Corridor (CDN),"Portos e Caminhos de Ferro de Moçambique, E.P.",https://www.cfm.co.mz/index.php/pt/,<Null>,<Null>,"NGA-WPI-Pub150, Google Maps","NGA-WPI-Pub150, MZp007, MZp012",Nampula,46935,POINT (4527104.984065833 -1625969.452218387),port784,port,Nacala_Mozambique,MOZ,AF,2080.424852699517,Y
MZp03,MZp03a,Mozambique,Nacala,<Null>,Bulk Commodities Port,-14.543914,40.667676,E,Y,Graphite,Unspecified,-999.0,NA,<Null>,<Null>,Northern Development Corridor (CDN),"Portos e Caminhos de Ferro de Moçambique, E.P.",https://www.cfm.co.mz/index.php/pt/,<Null>,MZp3,"NGA-WPI-Pub150, Google Maps","NGA-WPI-Pub150, MZp007, MZp012",Nampula,46935,POINT (4527104.984065833 -1625969.452218387),port784,port,Nacala_Mozambique,MOZ,AF,2080.424852699517,Y
MZp03,MZp03c,Mozambique,Nacala,<Null>,Oil and Gas Terminal,-14.543914,40.667676,E,Y,Oil and Gas Products,Petrol (Liquid Bulk),-999.0,NA,<Null>,<Null>,"Portos e Caminhos de Ferro de Mocambique, E.P.","Portos e Caminhos de Ferro de Moçambique, E.P.",https://www.cfm.co.mz/index.php/pt/,<Null>,<Null>,"NGA-WPI-Pub150, Google Maps","NGA-WPI-Pub150, MZp007, MZp012",Nampula,46935,POINT (4527104.984065833 -1625969.452218387),port784,port,Nacala_Mozambique,MOZ,AF,2080.424852699517,Y
REp01,REp01a,Réunion (France),Le Port,Le Port des Galets,Bulk Commodities Port,-20.932644,55.326278,E,N,Cement,"Cement (Bulk), Cement (Bagged), Clinker",500000.0,Metric tons,<Null>,<Null>,"Ciments de Bourbon, SA (Holcim Outre-Mer)",Chamber of Commerce and Industry of Réunion,https://reunion.cci.fr/,<Null>,REp1,Google Earth,"REp001, REp002, REp003",Saint-Denis,N/A,POINT (6158893.094447094 -2368589.961158397),port950,port,Port Est_Reunion,REU,AF,2109.1240095474573,Y
TNp01,TNp01a,Tunisia,Bizerte,Banzart,Oil and Gas Terminal,37.259565,9.852852,E,Y,Oil and Gas Products,Unspecified,-999.0,NA,<Null>,<Null>,<Null>,Office of Merchant Navy and Ports,http://www.ommp.nat.tn/,<Null>,TNp1,"NGA-WPI-Pub150, TNp015, Google Earth","NGA-WPI-Pub150, TNp001, TNp002, TNp007, TNp015",Bizerte,45440,POINT (1096814.4675014871 4449477.328826298),port115,port,Banzart_Tunisia,TUN,AF,2253.207039443703,Y
TNp01,TNp01d,Tunisia,Bizerte,Banzart,Bulk Commodities Port,37.259565,9.852852,E,Y,Cement,Clinker,-999.0,NA,<Null>,<Null>,<Null>,Office of Merchant Navy and Ports,http://www.ommp.nat.tn/,<Null>,<Null>,"NGA-WPI-Pub150, TNp015, Google Earth","NGA-WPI-Pub150, TNp001, TNp002",Bizerte,45440,POINT (1096814.4675014871 4449477.328826298),port115,port,Banzart_Tunisia,TUN,AF,2253.207039443703,Y
TNp01,TNp01b,Tunisia,Bizerte,Banzart,Bulk Commodities Port,37.259565,9.852852,E,Y,Fertilizer,"Phosphate (Unspecified), Chemicals",-999.0,NA,<Null>,<Null>,<Null>,Office of Merchant Navy and Ports,http://www.ommp.nat.tn/,<Null>,<Null>,"NGA-WPI-Pub150, TNp015, Google Earth","NGA-WPI-Pub150, TNp002, TNp007",Bizerte,45440,POINT (1096814.4675014871 4449477.328826298),port115,port,Banzart_Tunisia,TUN,AF,2253.207039443703,Y
TNp01,TNp01e,Tunisia,Bizerte,Banzart,Bulk Commodities Port,37.259565,9.852852,E,Y,Iron and Steel,Iron Ore,-999.0,NA,<Null>,<Null>,<Null>,Office of Merchant Navy and Ports,http://www.ommp.nat.tn/,<Null>,<Null>,"NGA-WPI-Pub150, TNp015, Google Earth","NGA-WPI-Pub150, TNp002",Bizerte,45440,POINT (1096814.4675014871 4449477.328826298),port115,port,Banzart_Tunisia,TUN,AF,2253.207039443703,Y
TNp01,TNp01c,Tunisia,Bizerte,Banzart,Bulk Commodities Port,37.259565,9.852852,E,Y,Iron and Steel,Unspecified Metallurgical Products,-999.0,NA,<Null>,<Null>,Tunis Acier steel dock,Office of Merchant Navy and Ports,http://www.ommp.nat.tn/,<Null>,<Null>,"NGA-WPI-Pub150, TNp015, Google Earth","NGA-WPI-Pub150, TNp001, TNp002",Bizerte,45440,POINT (1096814.4675014871 4449477.328826298),port115,port,Banzart_Tunisia,TUN,AF,2253.207039443703,Y
CIp01,CIp01a,Côte d’Ivoire,Abidjan,<Null>,Oil and Gas Terminal,5.301891,-4.021116,E,Y,Oil and Gas Products,Crude Oil,1.93,Million metric tons,<Null>,<Null>,<Null>,Port Automome d'Abidjan,http://www.portabidjan.ci/,<Null>,CIp1,"NGA-WPI-Pub150, Google Earth","NGA-WPI-Pub150, CIp001",Abidjan,46000,POINT (-447628.58554068505 587102.4270565306),port4,port,Abidjan_Cote d'Ivoire,CIV,AF,2293.076593455229,Y
CIp01,CIp01e,Côte d’Ivoire,Abidjan,<Null>,General Cargo Port,5.301891,-4.021116,E,Y,Mineral Products,Unspecified,15000.0,Metric tons per day,<Null>,<Null>,<Null>,Port Automome d'Abidjan,http://www.portabidjan.ci/,<Null>,<Null>,"NGA-WPI-Pub150, Google Earth","NGA-WPI-Pub150, CIp001",Abidjan,46000,POINT (-447628.58554068505 587102.4270565306),port4,port,Abidjan_Cote d'Ivoire,CIV,AF,2293.076593455229,Y
CIp01,CIp01c,Côte d’Ivoire,Abidjan,<Null>,Oil and Gas Terminal,5.301891,-4.021116,E,Y,"Oil and Gas Products, Refined",Petroleum Derivatives,99100.0,Metric tons,<Null>,<Null>,<Null>,Port Automome d'Abidjan,http://www.portabidjan.ci/,<Null>,<Null>,"NGA-WPI-Pub150, Google Earth","NGA-WPI-Pub150, CIp001",Abidjan,46000,POINT (-447628.58554068505 587102.4270565306),port4,port,Abidjan_Cote d'Ivoire,CIV,AF,2293.076593455229,Y
CIp01,CIp01d,Côte d’Ivoire,Abidjan,<Null>,Bulk Commodities Port,5.301891,-4.021116,E,Y,Aluminum,Bauxite (Bulk),750000.0,Metric tons,<Null>,Lagune Exploitation Bongouanou (Leb) Mines,<Null>,Port Automome d'Abidjan,http://www.portabidjan.ci/,China,<Null>,"NGA-WPI-Pub150, Google Earth","NGA-WPI-Pub150, CIp002",Abidjan,46000,POINT (-447628.58554068505 587102.4270565306),port4,port,Abidjan_Cote d'Ivoire,CIV,AF,2293.076593455229,Y
CIp01,CIp01b,Côte d’Ivoire,Abidjan,<Null>,Oil and Gas Terminal,5.301891,-4.021116,E,Y,"Oil and Gas Products, Refined",Refined Petroleum Products,1.24,Million metric tons,<Null>,<Null>,<Null>,Port Automome d'Abidjan,http://www.portabidjan.ci/,<Null>,<Null>,"NGA-WPI-Pub150, Google Earth","NGA-WPI-Pub150, CIp001",Abidjan,46000,POINT (-447628.58554068505 587102.4270565306),port4,port,Abidjan_Cote d'Ivoire,CIV,AF,2293.076593455229,Y
MAp03,MAp03b,Morocco,El Jorf Lasfar,<Null>,Bulk Commodities Port,33.12593,-8.624282,E,Y,Chemical Products,Acids (Unspecified),-999.0,NA,<Null>,<Null>,OCP,Societe d'Exploitation des Ports SA (SODEP),https://www.marsamaroc.co.ma,<Null>,<Null>,"NGA-WPI-Pub150, Google Maps","NGA-WPI-Pub150, MAp010",Doukkala - Abda,45796,POINT (-960050.6806975949 3888681.9822216695),port319,port,El Jorf Lasfar_Morocco,MAR,AF,2332.2904194088014,Y
MAp03,MAp03a,Morocco,El Jorf Lasfar,<Null>,Bulk Commodities Port,33.12593,-8.624282,E,Y,Fertilizer,Phosphate (Crude),-999.0,NA,<Null>,<Null>,OCP,Societe d'Exploitation des Ports SA (SODEP),https://www.marsamaroc.co.ma,<Null>,MAp3,"NGA-WPI-Pub150, Google Maps","NGA-WPI-Pub150, MAp010",Doukkala - Abda,45796,POINT (-960050.6806975949 3888681.9822216695),port319,port,El Jorf Lasfar_Morocco,MAR,AF,2332.2904194088014,Y
EGp03,EGp03a,Egypt,Bur Safaga,<Null>,Bulk Commodities Port,26.744517,33.944056,E,N,Fertilizer,Phosphate Rock (Ground),1000.0,Metric tons per day,<Null>,<Null>,Red Sea Ports Authority,Red Sea Ports Authority,http://www.mts.gov.eg/,<Null>,EGp3,"NGA-WPI-Pub150, Google Maps","NGA-WPI-Pub150, EGp010, EGp013",Al Bahr al Ahmar (Red Sea),47980,POINT (3778635.0293783625 3072365.4269194934),port191,port,Bur Safago_Egypt,EGY,AF,2359.567600735415,Y
MAp02,MAp02b,Morocco,Casablanca,<Null>,Bulk Commodities Port,33.607233,-7.600243,E,Y,Iron and Steel,Unspecified Metallurgical Products,-999.0,NA,<Null>,<Null>,<Null>,Societe d'Exploitation des Ports SA (SODEP),https://www.marsamaroc.co.ma,<Null>,<Null>,"NGA-WPI-Pub150, Google Maps","NGA-WPI-Pub150, MAp008, MZp012",Grand Casablanca,45793,POINT (-846055.1806651419 3952534.959793463),port220,port,Casablanca_Morocco,MAR,AF,2382.9018451300844,Y
MAp02,MAp02c,Morocco,Casablanca,<Null>,Bulk Commodities Port,33.607233,-7.600243,E,Y,Coal,Unspecified,-999.0,NA,<Null>,<Null>,Marsa Maroc,Societe d'Exploitation des Ports SA (SODEP),https://www.marsamaroc.co.ma,<Null>,<Null>,"NGA-WPI-Pub150, Google Maps","NGA-WPI-Pub150, MAp008, MZp012",Grand Casablanca,45793,POINT (-846055.1806651419 3952534.959793463),port220,port,Casablanca_Morocco,MAR,AF,2382.9018451300844,Y
MAp02,MAp02a,Morocco,Casablanca,<Null>,Bulk Commodities Port,33.607233,-7.600243,E,Y,Fertilizer,Phosphate,-999.0,NA,<Null>,<Null>,OCP,Societe d'Exploitation des Ports SA (SODEP),https://www.marsamaroc.co.ma,<Null>,MAp2,"NGA-WPI-Pub150, Google Maps","NGA-WPI-Pub150, MAp013, MZp012",Grand Casablanca,45793,POINT (-846055.1806651419 3952534.959793463),port220,port,Casablanca_Morocco,MAR,AF,2382.9018451300844,Y
GQp01,GQp01c,Equatorial Guinea,Punta Europa Terminal,<Null>,Oil and Gas Terminal,3.783333,8.716667,E,Y,"Oil and Gas Products, Refined",Methanol,1100000.0,Thousand 42-gallon barrels,<Null>,<Null>,Atlantic Methanol Production Co. LLC,Marathon E G Production Ltd.,https://www.marathon.com/,<Null>,<Null>,"NGA-WPI-Pub150, Google Maps","NGA-WPI-Pub150, GQp001, GQp005",Bioko Norte,46306,POINT (970334.9318545315 418647.7159678136),port685,port,Malabo_Equatorial Guinea,GNQ,AF,2502.94264040511,Y
GQp01,GQp01b,Equatorial Guinea,Punta Europa Terminal,<Null>,Oil and Gas Terminal,3.783333,8.716667,E,Y,Oil and Gas Products,Liquefied Natural Gas (LNG),3.7,Million metric tons,<Null>,<Null>,Equatorial Guinea LNG Holdings Ltd.,Marathon E G Production Ltd,https://www.marathon.com/,<Null>,<Null>,"NGA-WPI-Pub150, Google Maps","NGA-WPI-Pub150, GQp001, GQp005",Bioko Norte,46306,POINT (970334.9318545315 418647.7159678136),port685,port,Malabo_Equatorial Guinea,GNQ,AF,2502.94264040511,Y
GQp01,GQp01a,Equatorial Guinea,Punta Europa Terminal,<Null>,Oil and Gas Terminal,3.783333,8.716667,E,Y,Oil and Gas Products,Petroleum Concentrate,24000.0,Thousand 42-gallon barrels,<Null>,Alba Field,Marathon Oil Co.,Marathon E G Production Ltd.,https://www.marathon.com/,<Null>,GQp1,"NGA-WPI-Pub150, Google Maps","NGA-WPI-Pub150, GQp001, GQp002, GQp005",Bioko Norte,46306,POINT (970334.9318545315 418647.7159678136),port685,port,Malabo_Equatorial Guinea,GNQ,AF,2502.94264040511,Y
ERp01,ERp01g,Eritrea,Mitsiwa Harbor,Massawa,General Cargo Port,15.613005,39.479837,E,Y,Dimension Stone,"Granite, Marble",-999.0,NA,<Null>,Zara Mining Project,<Null>,Massawa Port Administration,https://www.masawaport.com/,<Null>,<Null>,"NGA-WPI-Pub150, Google Maps","NGA-WPI-Pub150, ERp001",Debub,47900,POINT (4394875.351441442 1748456.1375775144),port751,port,Mitsiwa Harbor_Eritrea,ERI,AF,2552.8419410886213,Y
ERp01,ERp01h,Eritrea,Mitsiwa Harbor,Massawa,General Cargo Port,15.613005,39.479837,E,Y,Fertilizer,Potash,-999.0,NA,<Null>,Zara Mining Project,<Null>,Massawa Port Administration,https://www.masawaport.com/,<Null>,<Null>,"NGA-WPI-Pub150, Google Maps","NGA-WPI-Pub150, ERp001",Debub,47900,POINT (4394875.351441442 1748456.1375775144),port751,port,Mitsiwa Harbor_Eritrea,ERI,AF,2552.8419410886213,Y
ERp01,ERp01a,Eritrea,Mitsiwa Harbor,Massawa,Oil and Gas Terminal,15.613005,39.479837,E,Y,"Oil and Gas Products, Refined",Refined Oil Products,-999.0,NA,<Null>,<Null>,Total Oil Terminal,Massawa Port Administration,https://www.masawaport.com/,<Null>,ERp1,"NGA-WPI-Pub150, Google Maps","NGA-WPI-Pub150, ERp001",Debub,47900,POINT (4394875.351441442 1748456.1375775144),port751,port,Mitsiwa Harbor_Eritrea,ERI,AF,2552.8419410886213,Y
ERp01,ERp01b,Eritrea,Mitsiwa Harbor,Massawa,Oil and Gas Terminal,15.613005,39.479837,E,Y,"Oil and Gas Products, Refined",Refined Oil Products,-999.0,NA,<Null>,<Null>,Tamoil Oil Terminal,Massawa Port Administration,https://www.masawaport.com/,<Null>,<Null>,"NGA-WPI-Pub150, Google Maps","NGA-WPI-Pub150, ERp001",Debub,47900,POINT (4394875.351441442 1748456.1375775144),port751,port,Mitsiwa Harbor_Eritrea,ERI,AF,2552.8419410886213,Y
ERp01,ERp01c,Eritrea,Mitsiwa Harbor,Massawa,General Cargo Port,15.613005,39.479837,E,Y,Copper,Unspecified,-999.0,NA,<Null>,Bisha Mine,Nevsun Resources,Massawa Port Administration,https://www.masawaport.com/,<Null>,<Null>,"NGA-WPI-Pub150, Google Maps","NGA-WPI-Pub150, ERp002",Debub,47900,POINT (4394875.351441442 1748456.1375775144),port751,port,Mitsiwa Harbor_Eritrea,ERI,AF,2552.8419410886213,Y
ERp01,ERp01d,Eritrea,Mitsiwa Harbor,Massawa,General Cargo Port,15.613005,39.479837,E,Y,Gold,Unspecified,-999.0,NA,<Null>,Bisha Mine,Nevsun Resources,Massawa Port Administration,https://www.masawaport.com/,<Null>,<Null>,"NGA-WPI-Pub150, Google Maps","NGA-WPI-Pub150, ERp002",Debub,47900,POINT (4394875.351441442 1748456.1375775144),port751,port,Mitsiwa Harbor_Eritrea,ERI,AF,2552.8419410886213,Y
ERp01,ERp01e,Eritrea,Mitsiwa Harbor,Massawa,General Cargo Port,15.613005,39.479837,E,Y,Zinc,Unspecified,-999.0,NA,<Null>,Bisha Mine,Nevsun Resources,Massawa Port Administration,https://www.masawaport.com/,<Null>,<Null>,"NGA-WPI-Pub150, Google Maps","NGA-WPI-Pub150, ERp002",Debub,47900,POINT (4394875.351441442 1748456.1375775144),port751,port,Mitsiwa Harbor_Eritrea,ERI,AF,2552.8419410886213,Y
ERp01,ERp01f,Eritrea,Mitsiwa Harbor,Massawa,General Cargo Port,15.613005,39.479837,E,Y,Silver,Unspecified,-999.0,NA,<Null>,Bisha Mine,Nevsun Resources,Massawa Port Administration,https://www.masawaport.com/,<Null>,<Null>,"NGA-WPI-Pub150, Google Maps","NGA-WPI-Pub150, ERp002",Debub,47900,POINT (4394875.351441442 1748456.1375775144),port751,port,Mitsiwa Harbor_Eritrea,ERI,AF,2552.8419410886213,Y
LYp03,LYp03a,Libya,Az Zawiya,<Null>,Oil and Gas Terminal,32.792313,12.677817,E,N,Oil and Gas Products,"Crude Oil, Refined Oil Products, Liquefied Petroleum Gas (LPG)",-999.0,NA,<Null>,<Null>,Azzawiya Oil Refining Company (ARC),Azzawiya Oil Refining Company (ARC),http://arc.com.ly/en/,<Null>,LYp3,"NGA-WPI-Pub150, Google Maps","NGA-WPI-Pub150, LYp007",Az Zawiyah,45335,POINT (1411288.132810307 3844629.304314629),port85,port,Az Zawiya_Libya,LBY,AF,2628.2953890274453,Y
EGp07,EGp07a,Egypt,El-Adabiya,<Null>,Bulk Commodities Port,29.883981,32.46896,E,Y,Cement,"Cement (Bulk), Cement (Bagged), Clinker",-999.0,NA,<Null>,<Null>,<Null>,Red Sea Ports Authority,http://www.mts.gov.eg/,<Null>,EGp7,"NGA-WPI-Pub150, Google Maps","NGA-WPI-Pub150, EGp012",As Suways (Suez),48045,POINT (3614428.0937871677 3467359.669776622),port321,port,El-Adabiya_Egypt,EGY,AF,2688.591585359695,Y
EGp07,EGp07b,Egypt,El-Adabiya,<Null>,Bulk Commodities Port,29.883981,32.46896,E,Y,Fertilizer,"Phosphate Rock, Phosphate (Bulk)",-999.0,NA,<Null>,<Null>,MCC Mining,Red Sea Ports Authority,http://www.mts.gov.eg/,<Null>,<Null>,"NGA-WPI-Pub150, Google Maps","NGA-WPI-Pub150, EGp013",As Suways (Suez),48045,POINT (3614428.0937871677 3467359.669776622),port321,port,El-Adabiya_Egypt,EGY,AF,2688.591585359695,Y
LYp06,LYp06a,Libya,Misratah,Port of Qasr Ahmed,Oil and Gas Terminal,32.364688,15.217573,E,N,Oil and Gas Products,Oil (Unspecified),200000.0,Metric tons,<Null>,<Null>,Misurata Free Zone (MFZ),Libyan Ports Company (Socialist Ports Company),https://www.lpclibya.com/,<Null>,LYp6,"NGA-WPI-Pub150, Google Maps","NGA-WPI-Pub150, LYp006",Misratah,45320,POINT (1694012.4774694685 3788406.404590047),port750,port,Misratah_Libya,LBY,AF,2728.8902306207024,Y
EHp02,EHp02a,Western Sahara,Laayoune,El Aaiun,Oil and Gas Terminal,27.093152,-13.431582,E,Y,Oil and Gas Products,Unspecified,-999.0,NA,<Null>,<Null>,<Null>,Societe d'Exploitation des Ports SA (SODEP),www.marsamaroc.co.ma,<Null>,EHp2,"NGA-WPI-Pub150, EHp002, Google Maps","NGA-WPI-Pub150, EHp002",Laayoune,45809,POINT (-1495196.868788099 3115659.5161898113),port623,port,Laayoune_Western Sahara,ESH,AF,2793.6048140326047,Y
EHp02,EHp02d,Western Sahara,Laayoune,El Aaiun,Bulk Commodities Port,27.093152,-13.431582,E,Y,Cement,"Cement (Bulk), Cement (Bagged)",500000.0,Metric tons,<Null>,Safi Cement Plant,Ciments du Maroc S.A. (CIMAR),Societe d'Exploitation des Ports SA (SODEP),www.marsamaroc.co.ma,<Null>,<Null>,"NGA-WPI-Pub150, EHp002, Google Maps","NGA-WPI-Pub150, EHp003, WRLDp003",Laayoune,45809,POINT (-1495196.868788099 3115659.5161898113),port623,port,Laayoune_Western Sahara,ESH,AF,2793.6048140326047,Y
EHp02,EHp02c,Western Sahara,Laayoune,El Aaiun,Bulk Commodities Port,27.093152,-13.431582,E,Y,Sand,Unspecified,-999.0,NA,<Null>,<Null>,<Null>,Societe d'Exploitation des Ports SA (SODEP),www.marsamaroc.co.ma,<Null>,<Null>,"NGA-WPI-Pub150, EHp002, Google Maps","NGA-WPI-Pub150, Ehp002",Laayoune,45809,POINT (-1495196.868788099 3115659.5161898113),port623,port,Laayoune_Western Sahara,ESH,AF,2793.6048140326047,Y
EHp02,EHp02b,Western Sahara,Laayoune,El Aaiun,Bulk Commodities Port,27.093152,-13.431582,E,Y,Fertilizer,Phosphate,2.6,Million metric tons,<Null>,<Null>,Phosboucraa,Societe d'Exploitation des Ports SA (SODEP),www.marsamaroc.co.ma,<Null>,<Null>,"NGA-WPI-Pub150, EHp002, Google Maps","NGA-WPI-Pub150, EHp002, EHp004, WRLDp003",Laayoune,45809,POINT (-1495196.868788099 3115659.5161898113),port623,port,Laayoune_Western Sahara,ESH,AF,2793.6048140326047,Y
MZp02,MZp02a,Mozambique,Maputo,<Null>,Bulk Commodities Port,-25.961353,32.550781,E,Y,Ferroalloys,"Ferrochrome, Ferronickel",4.5,Million metric tons,<Null>,<Null>,<Null>,Maputo Port Development Co. (MPDC),<Null>,<Null>,MZp2,"NGA-WPI-Pub150, MZp001, Google Maps","NGA-WPI-Pub150, MZp002, MZp003, MZp012",Maputo City,46870,POINT (3623536.3658433645 -2975595.596672748),port702,port,Maputo_Mozambique,MOZ,AF,3385.123587190915,Y
MZp02,MZp02h,Mozambique,Maputo,<Null>,Bulk Commodities Port,-25.961353,32.550781,E,Y,Aluminum,Aluminum Metal,560000.0,Metric tons,<Null>,<Null>,"Mozal, S.A.",Maputo Port Development Co. (MPDC),<Null>,<Null>,<Null>,"NGA-WPI-Pub150, MZp001, Google Maps","NGA-WPI-Pub150, MZp001, MZp005, MZp012",Maputo City,46870,POINT (3623536.3658433645 -2975595.596672748),port702,port,Maputo_Mozambique,MOZ,AF,3385.123587190915,Y
MZp02,MZp02f,Mozambique,Maputo,<Null>,Bulk Commodities Port,-25.961353,32.550781,E,Y,Cement,Clinker,7.5,Million metric tons,"Shared capacity: MZp02c, MZp02d, MZp02g, MZp02h",<Null>,Grindrod Mozambique Ltda. (GML),Maputo Port Development Co. (MPDC),<Null>,"Turkey, Others",<Null>,"NGA-WPI-Pub150, MZp001, Google Maps","NGA-WPI-Pub150, MZp001, MZp004, MZp006, MZp012",Maputo City,46870,POINT (3623536.3658433645 -2975595.596672748),port702,port,Maputo_Mozambique,MOZ,AF,3385.123587190915,Y
MZp02,MZp02g,Mozambique,Maputo,<Null>,Bulk Commodities Port,-25.961353,32.550781,E,Y,Aluminum,"Alumina, Petroleum Coke, and Pitch (combined capacity)",1.4,Million metric tons,<Null>,<Null>,"Mozal, S.A.",Maputo Port Development Co. (MPDC),<Null>,<Null>,<Null>,"NGA-WPI-Pub150, MZp001, Google Maps","NGA-WPI-Pub150, MZp001, MZp005, MZp012",Maputo City,46870,POINT (3623536.3658433645 -2975595.596672748),port702,port,Maputo_Mozambique,MOZ,AF,3385.123587190915,Y
MZp02,MZp02e,Mozambique,Maputo,<Null>,Bulk Commodities Port,-25.961353,32.550781,E,Y,Gypsum,Unspecified,7.5,Million metric tons,"Shared capacity: MZp02c, MZp02d, MZp02g, MZp02h",<Null>,Grindrod Mozambique Ltda. (GML),Maputo Port Development Co. (MPDC),<Null>,"Turkey, Others",<Null>,"NGA-WPI-Pub150, MZp001, Google Maps","NGA-WPI-Pub150, MZp001, MZp004, MZp006, MZp012",Maputo City,46870,POINT (3623536.3658433645 -2975595.596672748),port702,port,Maputo_Mozambique,MOZ,AF,3385.123587190915,Y
MZp02,MZp02d,Mozambique,Maputo,<Null>,Bulk Commodities Port,-25.961353,32.550781,E,Y,Iron and Steel,"Magnetite, Iron Oxide",7.5,Million metric tons,"Shared capacity: MZp02c, MZp02d, MZp02g, MZp02h",<Null>,Grindrod Mozambique Ltda. (GML),Maputo Port Development Co. (MPDC),<Null>,"Turkey, Others",<Null>,"NGA-WPI-Pub150, MZp001, Google Maps","NGA-WPI-Pub150, MZp001, MZp004, MZp006, MZp012",Maputo City,46870,POINT (3623536.3658433645 -2975595.596672748),port702,port,Maputo_Mozambique,MOZ,AF,3385.123587190915,Y
MZp02,MZp02c,Mozambique,Maputo,<Null>,Bulk Commodities Port,-25.961353,32.550781,E,Y,Coal,Unspecified,7.5,Million metric tons,"Shared capacity: MZp02c, MZp02d, MZp02g, MZp02h",<Null>,Grindrod Mozambique Ltda. (GML),Maputo Port Development Co. (MPDC),<Null>,"Turkey, Others",<Null>,"NGA-WPI-Pub150, MZp001, Google Maps","NGA-WPI-Pub150, MZp001, MZp004, MZp006, MZp012",Maputo City,46870,POINT (3623536.3658433645 -2975595.596672748),port702,port,Maputo_Mozambique,MOZ,AF,3385.123587190915,Y
MZp02,MZp02b,Mozambique,Maputo,<Null>,Bulk Commodities Port,-25.961353,32.550781,E,Y,Bulk Minerals,Unspecified,-999.0,NA,<Null>,<Null>,<Null>,Maputo Port Development Co. (MPDC),<Null>,<Null>,<Null>,"NGA-WPI-Pub150, MZp001, Google Maps","NGA-WPI-Pub150, MZp001, MZ0p03, MZp012",Maputo City,46870,POINT (3623536.3658433645 -2975595.596672748),port702,port,Maputo_Mozambique,MOZ,AF,3385.123587190915,Y
EGp02,EGp02b,Egypt,Suez,As Suways,Oil and Gas Terminal,29.940412,32.562914,E,Y,Oil and Gas Products,Liquefied Bulk Petroleum,4.14,Million metric tons,<Null>,<Null>,<Null>,Maritime Transport Sector (MTS),http://www.mts.gov.eg/,<Null>,<Null>,"NGA-WPI-Pub150, Google Maps, EGp003","NGA-WPI-Pub150, EGp001",As Suways (Suez),48040,POINT (3624887.0052251588 3474570.433392895),port71,port,As Suways_Egypt,EGY,AF,3839.644607951137,Y
EGp02,EGp02a,Egypt,Suez,As Suways,Bulk Commodities Port,29.940412,32.562914,E,Y,Bulk Cargo,Unspecified,6.6,Million metric tons,<Null>,<Null>,<Null>,Maritime Transport Sector (MTS),http://www.mts.gov.eg/,<Null>,EGp2,"NGA-WPI-Pub150, Google Maps, EGp002","NGA-WPI-Pub150, EGp001",As Suways (Suez),48040,POINT (3624887.0052251588 3474570.433392895),port71,port,As Suways_Egypt,EGY,AF,3839.644607951137,Y
MAp08,MAp08b,Morocco,Tangier-Mediterranean,Tanger,Oil and Gas Terminal,35.86178,-5.537478,E,Y,"Oil and Gas Products, Refined","Fuel Oil, Mogas, Diesel, Marine Diesel Oil (MDO)",630000.0,Metric tons,<Null>,<Null>,Horizon Tangiers Terminal SA (HTTSA),Tanger Med Port Authority,http://www.tmpa.ma/en/,<Null>,<Null>,"NGA-WPI-Pub150, Google Maps","NGA-WPI-Pub150, MAp001",Tanger - Tétouan,45753,POINT (-616429.2312389549 4256586.302103654),port1265,port,Tangier-Mediterranean_Morocco,MAR,AF,3844.6939124926175,Y
MAp08,MAp08a,Morocco,Tangier-Mediterranean,Tanger,Bulk Commodities Port,35.86178,-5.537478,E,Y,Mineral Products,Unspecified Containerized Minerals,-999.0,NA,<Null>,<Null>,Eurogate Tangier (Eurogate),Tanger Med Port Authority,http://www.tmpa.ma/en/,<Null>,MAp8,"NGA-WPI-Pub150, Google Maps","NGA-WPI-Pub150, MAp005",Tanger - Tétouan,45753,POINT (-616429.2312389549 4256586.302103654),port1265,port,Tangier-Mediterranean_Morocco,MAR,AF,3844.6939124926175,Y
NGp02,NGp02a,Nigeria,Calabar,<Null>,Oil and Gas Terminal,4.972582,8.322704,E,N,Oil and Gas Products,Crude Oil,-999.0,NA,<Null>,<Null>,ECM Terminals Limited Calabar,Nigerian Ports Authority,https://nigerianports.gov.ng/,<Null>,NGp2,"NGA-WPI-Pub150, Google Earth","NGA-WPI-Pub150, NGp001, NGp002",Cross River,46230,POINT (926479.171303141 550540.4502947069),port205,port,Calabar_Nigeria,NGA,AF,3927.7902606093694,Y
DJp01,DJp01a,Djibouti,Djibouti,<Null>,Bulk Commodities Port,11.605562,43.138347,E,N,Bulk Cargo,Unspecified,-999.0,NA,<Null>,<Null>,The Djibouti Ports and Free Zones Authority (DPFZA),The Djibouti Ports and Free Zones Authority (DPFZA),http://www.dpfza.gov.dj/,<Null>,DJp1,"NGA-WPI-Pub150, Google Maps","NGA-WPI-Pub150, DJp001, DJp002",Djibouti,47850,POINT (4802138.821703541 1292260.888048983),port294,port,Djibouti_Djibouti,DJI,AF,3961.7551405731215,Y
AGp05,AGp05a,Angola,Namibe,<Null>,General Cargo Port,-15.193233,12.13158,E,Y,Dimension Stone,Granite,34300.0,Cubic metres,<Null>,<Null>,<Null>,Empresa Portuaria do Namibe,<Null>,"Western Europe, India, China",AGp5,"NGA-WPI-Pub150, Google Earth","NGA-WPI-Pub150, AGp007, AGp009",Namibe,46610,POINT (1350481.3081178619 -1700287.9442998772),port788,port,Namibe_Angola,AGO,AF,3993.228954356275,Y
AGp05,AGp05b,Angola,Namibe,<Null>,Bulk Commodities Port,-15.193233,12.13158,E,Y,Iron and Steel,"Iron Ore (Hematite, Specularite)",-999.0,NA,<Null>,Kassinga/Jamba Mines,SACOMAR,Empresa Portuaria do Namibe,<Null>,<Null>,<Null>,"NGA-WPI-Pub150, Google Earth","NGA-WPI-Pub150, AGp007, AGp008",Namibe,46610,POINT (1350481.3081178619 -1700287.9442998772),port788,port,Namibe_Angola,AGO,AF,3993.228954356275,Y
TNp02,TNp02b,Tunisia,Gabes,<Null>,Bulk Commodities Port,33.895473,10.116028,E,Y,Fertilizer,Phosphoric Acid,-999.0,NA,<Null>,<Null>,Chermar,Office of Merchant Navy and Ports,http://www.ommp.nat.tn/,<Null>,<Null>,"NGA-WPI-Pub150, TNp015, Google Earth","NGA-WPI-Pub150, TNp007, TNp012",Gabès,45375,POINT (1126111.0858104976 3990947.0607085237),port371,port,Gabes_Tunisia,TUN,AF,4336.553289079068,Y
TNp02,TNp02c,Tunisia,Gabes,<Null>,Bulk Commodities Port,33.895473,10.116028,E,Y,Fertilizer,"Phosphate Fertilizer, Diammonium Phosphate (DAP), Triple Superphosphate (TSP), Monoammonium Phosphate (MAP), Dicalcium Phosphate (DCP), Aluminum Fluoride",-999.0,NA,<Null>,<Null>,Chermar,Office of Merchant Navy and Ports,http://www.ommp.nat.tn/,<Null>,<Null>,"NGA-WPI-Pub150, TNp015, Google Earth","NGA-WPI-Pub150, TNp007, TNp012, TNp013",Gabès,45375,POINT (1126111.0858104976 3990947.0607085237),port371,port,Gabes_Tunisia,TUN,AF,4336.553289079068,Y
TNp02,TNp02a,Tunisia,Gabes,<Null>,Oil and Gas Terminal,33.895473,10.116028,E,Y,Oil and Gas Products,"Crude Oil, Refined Oil Products, Liquefied Petroleum Gas (LPG)",-999.0,NA,<Null>,<Null>,<Null>,Office of Merchant Navy and Ports,http://www.ommp.nat.tn/,<Null>,TNp2,"NGA-WPI-Pub150, TNp015, Google Earth","NGA-WPI-Pub150, TNp007, TNp009, TNp015",Gabès,45375,POINT (1126111.0858104976 3990947.0607085237),port371,port,Gabes_Tunisia,TUN,AF,4336.553289079068,Y
TNp02,TNp02d,Tunisia,Gabes,<Null>,Bulk Commodities Port,33.895473,10.116028,E,Y,Cement,Portland,-999.0,NA,<Null>,<Null>,<Null>,Office of Merchant Navy and Ports,http://www.ommp.nat.tn/,<Null>,<Null>,"NGA-WPI-Pub150, TNp015, Google Earth","NGA-WPI-Pub150, TNp009, TNp013",Gabès,45375,POINT (1126111.0858104976 3990947.0607085237),port371,port,Gabes_Tunisia,TUN,AF,4336.553289079068,Y
EGp06,EGp06a,Egypt,El Dekheila Petroleum Terminal,El-Dekheila,Oil and Gas Terminal,31.132286,29.805733,E,N,Oil and Gas Products,Oil (Unspecified),-999.0,NA,<Null>,<Null>,Alexandria Petroleum Co.,Egyptian General Petroleum Corporation (EGPC),<Null>,<Null>,EGp6,"Google Earth, EGp003",EGp003,Al Iskandariyah (Alexandria),N/A,POINT (3317959.0202802704 3627852.3906189427),port23,port,Al Iskandariyh (Alexandria)_Egypt,EGY,AF,4636.712922076408,Y
AGp03,AGp03d,Angola,Luanda,<Null>,Bulk Commodities Port,-8.8,13.25,E,Y,Cement,"Clinker, Cement, Other Aggregates",-999.0,NA,<Null>,<Null>,Nova Cimangola SA,Empresa Portuaria de Luanda,https://www.portoluanda.co.ao/index.php,<Null>,<Null>,"NGA-WPI-Pub150, Google Earth","NGA-WPI-Pub150, AGp001, AGp002, AGp003, AGp005",Luanda,46560,POINT (1474983.2530108748 -976953.3451070014),port665,port,Luanda_Angola,AGO,AF,4733.001096794808,Y
AGp03,AGp03c,Angola,Luanda,<Null>,Bulk Commodities Port,-8.8,13.25,E,Y,Iron and Steel,Iron Ore,-999.0,NA,<Null>,<Null>,<Null>,Empresa Portuaria de Luanda,https://www.portoluanda.co.ao/index.php,<Null>,<Null>,"NGA-WPI-Pub150, Google Earth","NGA-WPI-Pub150, AGp005",Luanda,46560,POINT (1474983.2530108748 -976953.3451070014),port665,port,Luanda_Angola,AGO,AF,4733.001096794808,Y
AGp03,AGp03a,Angola,Luanda,<Null>,Oil and Gas Terminal,-8.8,13.25,E,Y,Oil and Gas Products,"Crude Oil, Gas, Fuel Oil",435000.0,Metric tons,<Null>,<Null>,Sonangol EP,Empresa Portuaria de Luanda,https://www.portoluanda.co.ao/index.php,São Tomé and Principe,AGp3,"NGA-WPI-Pub150, Google Earth","NGA-WPI-Pub150, AGp001, AGp003, AGp004, AGp005, AGp006",Luanda,46560,POINT (1474983.2530108748 -976953.3451070014),port665,port,Luanda_Angola,AGO,AF,4733.001096794808,Y
AGp03,AGp03b,Angola,Luanda,<Null>,General Cargo Port,-8.8,13.25,E,Y,Diamonds,Unspecified,-999.0,NA,<Null>,<Null>,<Null>,Empresa Portuaria de Luanda,https://www.portoluanda.co.ao/index.php,<Null>,<Null>,"NGA-WPI-Pub150, Google Earth","NGA-WPI-Pub150, AGp005",Luanda,46560,POINT (1474983.2530108748 -976953.3451070014),port665,port,Luanda_Angola,AGO,AF,4733.001096794808,Y
MRp02,MRp02k,Mauritania,Nouakchott,Port of Friendship,Oil and Gas Terminal,18.035633,-16.02391,E,Y,"Oil and Gas Products, Refined",Gasoline,117000.0,Metric tons,<Null>,<Null>,<Null>,Port Autonome de Nouakchott (PANPA),http://www.port-nouakchott.com/fr,<Null>,<Null>,"NGA-WPI-Pub150, Google Maps","NGA-WPI-Pub150, MRp002, MRp005",Nouakchott,45814,POINT (-1783773.5017172445 2028497.3590900966),port831,port,Nouakchott_Mauritania,MRT,AF,5030.087922647431,Y
MRp02,MRp02l,Mauritania,Nouakchott,Port of Friendship,Oil and Gas Terminal,18.035633,-16.02391,E,Y,"Oil and Gas Products, Refined",Butane Gas,61600.0,Metric tons,<Null>,<Null>,<Null>,Port Autonome de Nouakchott (PANPA),http://www.port-nouakchott.com/fr,<Null>,<Null>,"NGA-WPI-Pub150, Google Maps","NGA-WPI-Pub150, MRp002, MRp005",Nouakchott,45814,POINT (-1783773.5017172445 2028497.3590900966),port831,port,Nouakchott_Mauritania,MRT,AF,5030.087922647431,Y
MRp02,MRp02j,Mauritania,Nouakchott,Port of Friendship,Oil and Gas Terminal,18.035633,-16.02391,E,Y,"Oil and Gas Products, Refined","Fuel Oil, Liquefied Natural Gas (LNG)",346000.0,Metric tons,<Null>,<Null>,<Null>,Port Autonome de Nouakchott (PANPA),http://www.port-nouakchott.com/fr,<Null>,<Null>,"NGA-WPI-Pub150, Google Maps","NGA-WPI-Pub150, MRp002, MRp005",Nouakchott,45814,POINT (-1783773.5017172445 2028497.3590900966),port831,port,Nouakchott_Mauritania,MRT,AF,5030.087922647431,Y
MRp02,MRp02g,Mauritania,Nouakchott,Port of Friendship,Bulk Commodities Port,18.035633,-16.02391,E,Y,Cement,Clinker,795000.0,Metric tons,<Null>,<Null>,Exploitation non aménagée (Ciment de Mauritanie),Port Autonome de Nouakchott (PANPA),http://www.port-nouakchott.com/fr,<Null>,<Null>,"NGA-WPI-Pub150, Google Maps","NGA-WPI-Pub150, MRp005",Nouakchott,45814,POINT (-1783773.5017172445 2028497.3590900966),port831,port,Nouakchott_Mauritania,MRT,AF,5030.087922647431,Y
MRp02,MRp02h,Mauritania,Nouakchott,Port of Friendship,Bulk Commodities Port,18.035633,-16.02391,E,Y,Chemical Products,"Lime (Quicklime, Slaked Lime), Caustic Soda (Poured or Not)",-999.0,NA,<Null>,<Null>,<Null>,Port Autonome de Nouakchott (PANPA),http://www.port-nouakchott.com/fr,<Null>,<Null>,"NGA-WPI-Pub150, Google Maps","NGA-WPI-Pub150, MRp002",Nouakchott,45814,POINT (-1783773.5017172445 2028497.3590900966),port831,port,Nouakchott_Mauritania,MRT,AF,5030.087922647431,Y
MRp02,MRp02i,Mauritania,Nouakchott,Port of Friendship,Oil and Gas Terminal,18.035633,-16.02391,E,Y,"Oil and Gas Products, Refined","Gasoline, Fuel Oil, Gas Oil, Liquefied Natural Gas (LNG), Bitumen (Tar), Butane Gas (Bulk, Bottled), Lubricating Oil, Engine Oil (Industrial), Aircraft Kerosene",569000.0,Metric tons,<Null>,<Null>,SEPCO Sarl Industries,Port Autonome de Nouakchott (PANPA),http://www.port-nouakchott.com/fr,<Null>,<Null>,"NGA-WPI-Pub150, Google Maps","NGA-WPI-Pub150, MRp001, MRp002, MRp004, MRp005",Nouakchott,45814,POINT (-1783773.5017172445 2028497.3590900966),port831,port,Nouakchott_Mauritania,MRT,AF,5030.087922647431,Y
MRp02,MRp02d,Mauritania,Nouakchott,Port of Friendship,General Cargo Port,18.035633,-16.02391,E,Y,Gold,Gold Concentrate,-999.0,NA,<Null>,Guelb Moghrein Copper-Gold Mine and Tasiast Gold Mine,Mauritanian Copper Mines (MCM),Port Autonome de Nouakchott (PANPA),http://www.port-nouakchott.com/fr,<Null>,<Null>,"NGA-WPI-Pub150, Google Maps","NGA-WPI-Pub150, MRp003, MRp004",Nouakchott,45814,POINT (-1783773.5017172445 2028497.3590900966),port831,port,Nouakchott_Mauritania,MRT,AF,5030.087922647431,Y
MRp02,MRp02b,Mauritania,Nouakchott,Port of Friendship,Bulk Commodities Port,18.035633,-16.02391,E,Y,Copper,Concentrate,270000.0,Metric tons,<Null>,Guelb Moghrein Mine,Mauritanian Copper Mines (MCM),Port Autonome de Nouakchott (PANPA),http://www.port-nouakchott.com/fr,<Null>,<Null>,"NGA-WPI-Pub150, Google Maps","NGA-WPI-Pub150, MRp002, MRp004, MRp005",Nouakchott,45814,POINT (-1783773.5017172445 2028497.3590900966),port831,port,Nouakchott_Mauritania,MRT,AF,5030.087922647431,Y
MRp02,MRp02e,Mauritania,Nouakchott,Port of Friendship,General Cargo Port,18.035633,-16.02391,E,Y,Gypsum,Unspecified,47900.0,Metric tons,<Null>,<Null>,<Null>,Port Autonome de Nouakchott (PANPA),http://www.port-nouakchott.com/fr,<Null>,<Null>,"NGA-WPI-Pub150, Google Maps","NGA-WPI-Pub150, MRp002, MRp005",Nouakchott,45814,POINT (-1783773.5017172445 2028497.3590900966),port831,port,Nouakchott_Mauritania,MRT,AF,5030.087922647431,Y
MRp02,MRp02n,Mauritania,Nouakchott,Port of Friendship,Oil and Gas Terminal,18.035633,-16.02391,E,Y,Oil and Gas Products,Bitumen,15100.0,Metric tons,<Null>,<Null>,<Null>,Port Autonome de Nouakchott (PANPA),http://www.port-nouakchott.com/fr,<Null>,<Null>,"NGA-WPI-Pub150, Google Maps","NGA-WPI-Pub150, MRp002, MRp005",Nouakchott,45814,POINT (-1783773.5017172445 2028497.3590900966),port831,port,Nouakchott_Mauritania,MRT,AF,5030.087922647431,Y
MRp02,MRp02m,Mauritania,Nouakchott,Port of Friendship,Oil and Gas Terminal,18.035633,-16.02391,E,Y,"Oil and Gas Products, Refined",Kerosene,28800.0,Metric tons,<Null>,<Null>,<Null>,Port Autonome de Nouakchott (PANPA),http://www.port-nouakchott.com/fr,<Null>,<Null>,"NGA-WPI-Pub150, Google Maps","NGA-WPI-Pub150, MRp002, MRp005",Nouakchott,45814,POINT (-1783773.5017172445 2028497.3590900966),port831,port,Nouakchott_Mauritania,MRT,AF,5030.087922647431,Y
MRp02,MRp02f,Mauritania,Nouakchott,Port of Friendship,Bulk Commodities Port,18.035633,-16.02391,E,Y,Cement,"Cement (Black Cement, Other)",-999.0,NA,<Null>,<Null>,Exploitation non aménagée (Ciment de Mauritanie),Port Autonome de Nouakchott (PANPA),http://www.port-nouakchott.com/fr,<Null>,<Null>,"NGA-WPI-Pub150, Google Maps","NGA-WPI-Pub150, MRp002",Nouakchott,45814,POINT (-1783773.5017172445 2028497.3590900966),port831,port,Nouakchott_Mauritania,MRT,AF,5030.087922647431,Y
MRp02,MRp02a,Mauritania,Nouakchott,Port of Friendship,Bulk Commodities Port,18.035633,-16.02391,E,Y,Sand,Silica Sand,-999.0,NA,<Null>,<Null>,CMA CGM,Port Autonome de Nouakchott (PANPA),http://www.port-nouakchott.com/fr,<Null>,MRp2,"NGA-WPI-Pub150, Google Maps","NGA-WPI-Pub150, MRp002",Nouakchott,45814,POINT (-1783773.5017172445 2028497.3590900966),port831,port,Nouakchott_Mauritania,MRT,AF,5030.087922647431,Y
MRp02,MRp02c,Mauritania,Nouakchott,Port of Friendship,Bulk Commodities Port,18.035633,-16.02391,E,Y,Iron and Steel,Iron Ore,88600.0,Metric tons,<Null>,"Guelb El Rhein Mine, Kedia D’Idjill Mine, and M’Haoudat Mine (Operated by Snim)",<Null>,Port Autonome de Nouakchott (PANPA),http://www.port-nouakchott.com/fr,<Null>,<Null>,"NGA-WPI-Pub150, Google Maps","NGA-WPI-Pub150, MRp002, MRp004, MRp005",Nouakchott,45814,POINT (-1783773.5017172445 2028497.3590900966),port831,port,Nouakchott_Mauritania,MRT,AF,5030.087922647431,Y
DZp07,DZp07h,Algeria,Skikda,<Null>,Oil and Gas Terminal,36.887674,6.90704,E,Y,Oil and Gas Products,Butane and Propane,49600.0,Cubic meters (presumed),<Null>,Hassi Messaoud Oil Fields,Sonatrach,Skikda Port Enterprise,http://www.skikda-port.com/,<Null>,<Null>,"NGA-WPI-Pub150, Google Earth","NGA-WPI-Pub150, DZp018, DZp021",Skikda,45510,POINT (768888.1756887722 4397811.699360151),port969,port,Port Methanier_Algeria,DZA,AF,5289.980229527654,Y
DZp07,DZp07c,Algeria,Skikda,<Null>,Bulk Commodities Port,36.887674,6.90704,E,Y,Fertilizer,Unspecified,15100.0,Metric tons,<Null>,<Null>,<Null>,Skikda Port Enterprise,http://www.skikda-port.com/,<Null>,<Null>,"NGA-WPI-Pub150, Google Earth","NGA-WPI-Pub150, DZp018, DZp021",Skikda,45510,POINT (768888.1756887722 4397811.699360151),port969,port,Port Methanier_Algeria,DZA,AF,5289.980229527654,Y
DZp07,DZp07b,Algeria,Skikda,<Null>,General Cargo Port,36.887674,6.90704,E,Y,Mineral Products,Unspecified,-999.0,NA,<Null>,Safsaf Valley and Surrounding Region,<Null>,Skikda Port Enterprise,http://www.skikda-port.com/,<Null>,<Null>,"NGA-WPI-Pub150, Google Earth","NGA-WPI-Pub150, DZp017, DZp021",Skikda,45510,POINT (768888.1756887722 4397811.699360151),port969,port,Port Methanier_Algeria,DZA,AF,5289.980229527654,Y
DZp07,DZp07e,Algeria,Skikda,<Null>,Oil and Gas Terminal,36.887674,6.90704,E,Y,Oil and Gas Products,Crude Oil,72800.0,42-gallon barrels (presumed),<Null>,Hassi Messaoud Oil Fields,Sonatrach,Skikda Port Enterprise,http://www.skikda-port.com/,<Null>,<Null>,"NGA-WPI-Pub150, Google Earth","NGA-WPI-Pub150, DZp018, DZp021",Skikda,45510,POINT (768888.1756887722 4397811.699360151),port969,port,Port Methanier_Algeria,DZA,AF,5289.980229527654,Y
DZp07,DZp07d,Algeria,Skikda,<Null>,Oil and Gas Terminal,36.887674,6.90704,E,Y,Oil and Gas Products,Saharan Blend Crude Oil,-999.0,NA,<Null>,Hassi Messaoud Oil Fields,Sonatrach,Skikda Port Enterprise,http://www.skikda-port.com/,<Null>,<Null>,"NGA-WPI-Pub150, Google Earth","NGA-WPI-Pub150, DZp016, DZp017, DZp021",Skikda,45510,POINT (768888.1756887722 4397811.699360151),port969,port,Port Methanier_Algeria,DZA,AF,5289.980229527654,Y
DZp07,DZp07a,Algeria,Skikda,<Null>,Bulk Commodities Port,36.887674,6.90704,E,Y,Metallurgical Products,Unspecified,686000.0,Metric tons,<Null>,<Null>,<Null>,Skikda Port Enterprise,http://www.skikda-port.com/,<Null>,DZp7,"NGA-WPI-Pub150, Google Earth","NGA-WPI-Pub150, DZp017, DZp021",Skikda,45510,POINT (768888.1756887722 4397811.699360151),port969,port,Port Methanier_Algeria,DZA,AF,5289.980229527654,Y
DZp07,DZp07i,Algeria,Skikda,<Null>,Oil and Gas Terminal,36.887674,6.90704,E,Y,"Oil and Gas Products, Refined",Refined Hydrocarbons,15700000.0,Cubic meters (presumed),<Null>,Hassi Messaoud Oil Fields,Sonatrach,Skikda Port Enterprise,http://www.skikda-port.com/,<Null>,<Null>,"NGA-WPI-Pub150, Google Earth","NGA-WPI-Pub150, DZp018, DZp021",Skikda,45510,POINT (768888.1756887722 4397811.699360151),port969,port,Port Methanier_Algeria,DZA,AF,5289.980229527654,Y
DZp07,DZp07f,Algeria,Skikda,<Null>,Oil and Gas Terminal,36.887674,6.90704,E,Y,Oil and Gas Products,Liquefied Natural Gas (LNG),3050000.0,Cubic meters (presumed),<Null>,Hassi Messaoud Oil Fields,Sonatrach,Skikda Port Enterprise,http://www.skikda-port.com/,<Null>,<Null>,"NGA-WPI-Pub150, Google Earth","NGA-WPI-Pub150, DZp018, DZp020, DZp021",Skikda,45510,POINT (768888.1756887722 4397811.699360151),port969,port,Port Methanier_Algeria,DZA,AF,5289.980229527654,Y
DZp07,DZp07g,Algeria,Skikda,<Null>,Oil and Gas Terminal,36.887674,6.90704,E,Y,Oil and Gas Products,Methane,2980000.0,Cubic meters (presumed),<Null>,Hassi Messaoud Oil Fields,Sonatrach,Skikda Port Enterprise,http://www.skikda-port.com/,<Null>,<Null>,"NGA-WPI-Pub150, Google Earth","NGA-WPI-Pub150, DZp018, DZp021",Skikda,45510,POINT (768888.1756887722 4397811.699360151),port969,port,Port Methanier_Algeria,DZA,AF,5289.980229527654,Y
EGp01,EGp01b,Egypt,Alexandria,Al Iskandariyh,Oil and Gas Terminal,31.187665,29.873687,E,Y,Oil and Gas Products,"Asphalt, Butane, Lubricant Oil, Liquefied Petroleum Gas (LPG), Fuel Oil, Jet Oil, Naphtha",-999.0,NA,<Null>,<Null>,The Alexandria Container Handling Company,Alexandria Port Authority,http://apa.gov.eg/ar/,<Null>,<Null>,"NGA-WPI-Pub150, Google Maps","NGA-WPI-Pub150, EGp006",Al Iskandariyah (Alexandria),45165,POINT (3325523.624957636 3635021.144016328),port23,port,Al Iskandariyh (Alexandria)_Egypt,EGY,AF,5799.395094851479,Y
EGp01,EGp01a,Egypt,Alexandria,Al Iskandariyh,Bulk Commodities Port,31.187665,29.873687,E,Y,Coal,Unspecified,40000.0,Metric tons,<Null>,<Null>,El-Nasr Company,Alexandria Port Authority,http://apa.gov.eg/ar/,<Null>,EGp1,"NGA-WPI-Pub150, Google Maps","NGA-WPI-Pub150, EGp006",Al Iskandariyah (Alexandria),45165,POINT (3325523.624957636 3635021.144016328),port23,port,Al Iskandariyh (Alexandria)_Egypt,EGY,AF,5799.395094851479,Y
MRp01,MRp01c,Mauritania,Nouadhibou,<Null>,General Cargo Port,20.898902,-17.052944,E,Y,Copper,Unspecified,-999.0,NA,<Null>,<Null>,<Null>,Nouadhibou Port Authority,<Null>,<Null>,<Null>,"NGA-WPI-Pub150, Google Maps","NGA-WPI-Pub150, MRp001, MRp004",Dakhlet Nouadhibou,45812,POINT (-1898325.0426062099 2364592.361051149),port830,port,Nouadhibou_Mauritania,MRT,AF,5961.948396835646,Y
MRp01,MRp01b,Mauritania,Nouadhibou,<Null>,General Cargo Port,20.898902,-17.052944,E,Y,Gold,Unspecified,-999.0,NA,<Null>,<Null>,<Null>,Nouadhibou Port Authority,<Null>,<Null>,<Null>,"NGA-WPI-Pub150, Google Maps","NGA-WPI-Pub150, MRp001, MRp004",Dakhlet Nouadhibou,45812,POINT (-1898325.0426062099 2364592.361051149),port830,port,Nouadhibou_Mauritania,MRT,AF,5961.948396835646,Y
MRp01,MRp01a,Mauritania,Nouadhibou,<Null>,Bulk Commodities Port,20.898902,-17.052944,E,Y,Iron and Steel,"Iron Ore Pellets, 70% Fe",12.0,Million metric tons,<Null>,Mining Areas Near Fdérik And Zouérat via the Mauritiania Railway,<Null>,Nouadhibou Port Authority,<Null>,<Null>,MRp1,"NGA-WPI-Pub150, Google Maps","NGA-WPI-Pub150, MRp001, MRp004",Dakhlet Nouadhibou,45812,POINT (-1898325.0426062099 2364592.361051149),port830,port,Nouadhibou_Mauritania,MRT,AF,5961.948396835646,Y
MGp04,MGp04a,Madagascar,Tôlanaro,Tolagnaro,General Cargo Port,-25.027801,46.996049,E,Y,Graphite,High-Quality Flake Graphite,-999.0,NA,<Null>,Molo Graphite Mine,NextSource Materials Inc.,Tolagnaro Port Authority,<Null>,<Null>,MGp4,"NGA-WPI-Pub150, Google Maps","NGA-WPI-Pub150, MRp006",Toliary,47470,POINT (5231576.243975733 -2861088.9270980386),port340,port,Faradofay_Madagascar,MDG,AF,5967.604733927107,Y
DZp03,DZp03a,Algeria,Arzew,<Null>,Oil and Gas Terminal,35.859705,-0.300684,E,Y,Oil and Gas Products,Oil (Unspecified),-999.0,NA,<Null>,<Null>,<Null>,Entreprise Portuaire d'Arzew,http://www.arzewports.dz/index.php,<Null>,DZp3,"NGA-WPI-Pub150, DZp010, Google Earth","NGA-WPI-Pub150, DZp019",Oran,45630,POINT (-33471.98976968467 4256302.543848699),port70,port,Arzew El Djedid_Algeria,DZA,AF,6645.105663143668,N
DZp03,DZp03b,Algeria,Arzew,<Null>,Oil and Gas Terminal,35.859705,-0.300684,E,Y,Oil and Gas Products,Liquefied Natural Gas (LNG),4.7,Million metric tons,<Null>,Gassi Touil and Rhourde Enouss Gas Fields,Sonatrach,Entreprise Portuaire d'Arzew,http://www.arzewports.dz/index.php,<Null>,<Null>,"NGA-WPI-Pub150, DZp010, Google Earth","NGA-WPI-Pub150, DZp021, DZp022",Oran,45630,POINT (-33471.98976968467 4256302.543848699),port70,port,Arzew El Djedid_Algeria,DZA,AF,6645.105663143668,N
NGp01,NGp01a,Nigeria,Port of Apapa,Apapa Quays,Bulk Commodities Port,6.435905,3.393549,E,N,Cement,Containerized,230.0,Metric tons,<Null>,Ashakacem Plc,APM Terminals,Nigerian Ports Authority,https://nigerianports.gov.ng/,<Null>,NGp1,Google Earth,NGp014,Lagos,N/A,POINT (377768.14666202274 713166.869349545),port626,port,Lagos_Nigeria,NGA,AF,6735.258356644357,N
EGp04,EGp04a,Egypt,Bur Said,Port Said,General Cargo Port,31.213287,32.358313,E,N,Mineral Products,Unspecified Containerized Minerals,2.6,MTEU,<Null>,<Null>,APM Terminals,The Suez Canal Container Company (SCCT),https://scct.com.eg/general-information/,<Null>,EGp4,"NGA-WPI-Pub150, Google Maps, EGp003","NGA-WPI-Pub150, EGp004",Bur Sa`id (Port Said),45140,POINT (3602110.926089365 3638339.3178434162),port192,port,Bur Said (Port Said)_Egypt,EGY,AF,7337.125747845347,N
NGp06,NGp06a,Nigeria,Lagos,Premiere Port (Apapa Quays),Oil and Gas Terminal,6.411558,3.392483,E,N,Oil and Gas Products,Oil (Unspecified),-999.0,NA,<Null>,<Null>,Bolloré Ports,Nigerian Ports Authority,https://nigerianports.gov.ng/,<Null>,NGp6,"NGA-WPI-Pub150, Google Earth","NGA-WPI-Pub150, NGp013",Lagos,46130,POINT (377649.4800848371 710457.4813793674),port626,port,Lagos_Nigeria,NGA,AF,7618.57865077822,N
KEp01,KEp01a,Kenya,Lamu,<Null>,Oil and Gas Terminal,-2.266667,40.9,A,N,Oil and Gas Products,Crude Oil,-999.0,NA,<Null>,<Null>,<Null>,Kenya Ports Authority,https://kpa.co.ke/AboutUs/Pages/default.aspx,<Null>,KEp1,"NGA-WPI-Pub150, Google Maps","NGA-WPI-Pub150, KEp005",Lamu,47110,POINT (4552967.173444889 -250701.33945843455),port631,port,Lamu_Kenya,KEN,AF,7934.261916982496,N
TNp06,TNp06a,Tunisia,Skhira,<Null>,Oil and Gas Terminal,34.287482,10.096441,E,N,"Oil and Gas Products, Refined",Refined Petroleum Products,-999.0,NA,<Null>,Al-Dūlāb Oil Field,<Null>,Office of Merchant Navy and Ports,http://www.ommp.nat.tn/,<Null>,TNp6,"NGA-WPI-Pub150, TNp015, Google Earth","NGA-WPI-Pub150, TNp006, TNp007, TNp015",Sfax,45380,POINT (1123930.6709443298 4043398.8666977985),port1206,port,Skhira_Tunisia,TUN,AF,8571.016806635196,N
NGp07,NGp07a,Nigeria,Okrikra,<Null>,Oil and Gas Terminal,4.719394,7.086622,E,N,"Oil and Gas Products, Refined","Diesel, Fuel Oil, Liquefied Petroleum Gas (LPG) and Dual Purpose Kerosene (DPK)",-999.0,NA,<Null>,Alesa-Eleme Oil Refinery,<Null>,Nigerian Ports Authority,https://nigerianports.gov.ng/,<Null>,NGp7,"NGA-WPI-Pub150, Google Earth","NGA-WPI-Pub150, NGp020, NGp021",Rivers,46207,POINT (788879.15248441 522442.5701929294),port851,port,Onne_Nigeria,NGA,AF,8721.457208172964,N
ZAp06,ZAp06b,South Africa,Port Elizabeth,<Null>,Bulk Commodities Port,-33.968282,25.639946,E,Y,Ores,Unspecified (Bulk),-999.0,NA,<Null>,<Null>,Transnet Port Terminals,Transnet National Port Authority,https://www.transnetnationalportsauthority.net/Pages/default.aspx,<Null>,<Null>,"NGA-WPI-Pub150, Google Maps, ZAp005","NGA-WPI-Pub150, ZAp001, ZAp003, WRLDp001, ZAp012",Eastern Cape,46820,POINT (2854225.7326870314 -4000670.5922180847),port948,port,Port Elizabeth_South Africa,ZAF,AF,8881.452957727184,N
ZAp06,ZAp06c,South Africa,Port Elizabeth,<Null>,Bulk Commodities Port,-33.968282,25.639946,E,Y,Iron and Steel,Unspecified Steel Products,-999.0,NA,<Null>,<Null>,Transnet Port Terminals,Transnet National Port Authority,https://www.transnetnationalportsauthority.net/Pages/default.aspx,<Null>,<Null>,"NGA-WPI-Pub150, Google Maps, ZAp006","NGA-WPI-Pub150, ZAp001, ZAp003, WRLDp001, ZAp012",Eastern Cape,46820,POINT (2854225.7326870314 -4000670.5922180847),port948,port,Port Elizabeth_South Africa,ZAF,AF,8881.452957727184,N
ZAp06,ZAp06a,South Africa,Port Elizabeth,<Null>,Bulk Commodities Port,-33.968282,25.639946,E,Y,Manganese,Manganese Ore,-999.0,NA,<Null>,Northern Cape Province,Transnet Port Terminals,Transnet National Port Authority,https://www.transnetnationalportsauthority.net/Pages/default.aspx,<Null>,ZAp6,"NGA-WPI-Pub150, Google Maps, ZAp004","NGA-WPI-Pub150, ZAp001, ZAp003, WRLDp001, ZAp012",Eastern Cape,46820,POINT (2854225.7326870314 -4000670.5922180847),port948,port,Port Elizabeth_South Africa,ZAF,AF,8881.452957727184,N
GAp01,GAp01a,Gabon,Cap Lopez,<Null>,Oil and Gas Terminal,-0.63079,8.714313,E,N,Oil and Gas Products,Oil (Unspecified),-999.0,NA,<Null>,<Null>,Total Gabon,Total,https://www.total.com/gabon,<Null>,GAp1,"NGA-WPI-Pub150, Google Maps","NGA-WPI-Pub150, GAp004",Ogooué-Maritime,46445,POINT (970072.8857732044 -69750.57535647124),port952,port,Port Gentil_Gabon,GAB,AF,8929.60399168743,N
ZAp05,ZAp05a,South Africa,Ngqura,Coega,Bulk Commodities Port,-33.804043,25.682427,E,N,Manganese,Unspecified (Dry Bulk),16.0,Million metric tons,<Null>,<Null>,Transnet Port Terminals,Transnet National Port Authority,https://www.transnetnationalportsauthority.net/Pages/default.aspx,<Null>,ZAp5,"Google Earth, ZAp003","ZAp003, ZAp011, ZAp019",Eastern Cape,N/A,POINT (2858954.6959754205 -3978748.58071742),port948,port,Port Elizabeth_South Africa,ZAF,AF,14830.458754168507,N
CDp01,CDp01a,Congo (Kinshasa),Banana,<Null>,Oil and Gas Terminal,-6.002458,12.400477,E,N,Oil and Gas Products,Crude Oil,-999.0,NA,<Null>,<Null>,Perenco,Société Commerciale des Transports et des Ports (SCTP),https://www.sctp-sa.org/,<Null>,CDp1,"NGA-WPI-Pub150, Google Maps","NGA-WPI-Pub150, CDp001, CDp002",Kongo-Central,46510,POINT (1380414.7852337006 -664951.1353984842),port1217,port,Soyo Angola LNG Terminal_Angola,AGO,AF,15123.37935492736,N
AGp01,AGp01a,Angola,Cabinda,<Null>,Oil and Gas Terminal,-5.550828,12.193208,E,N,Oil and Gas Products,Crude Oil,16.0,Thousand barrels per day,<Null>,<Null>,Chevron Angola,Autoridade Portuaria de Cabinda,http://www.portocabinda.co.ao/port_cabinda.php,<Null>,AGp1,"NGA-WPI-Pub150, Google Earth","NGA-WPI-Pub150, AGp021",Cabinda,46490,POINT (1357341.7056964696 -614754.0448345976),port691,port,Malongo_Angola,AGO,AF,17561.617064831975,N
CGp01,CGp01a,Congo (Brazzaville),Djeno Terminal,<Null>,Oil and Gas Terminal,-4.919879,11.928411,E,N,Oil and Gas Products,Djeno Crude Oil ,-999.0,NA,<Null>,<Null>,Total E&P Congo,Total,https://www.total.com/republic-congo,<Null>,CGp1,"NGA-WPI-Pub150, Google Maps","NGA-WPI-Pub150, CGp001",Kouilou,46472,POINT (1327864.6384928832 -544690.7801203056),port919,port,Point Noire_Republic of Congo,COG,AF,18128.16361102275,N
SLp03,SLp03a,Sierra Leone,Pepel,<Null>,Bulk Commodities Port,8.57749,-13.058109,E,N,Iron and Steel,High-Grade >65% Iron Ore Concentrate (Marampa Mine Blue Hematite),20000.0,Million metric tons,<Null>,"Tonkolili Iron Ore Mine, Marampa Mine",African Minerals (AML),Sierra Leone Ports Authority,https://www.ncpsl.gov.sl/slpa/,<Null>,SLp3,"NGA-WPI-Pub150, Google Maps","NGA-WPI-Pub150, SLp001, SLp002, SLp003",Northern,45865,POINT (-1453622.0446030628 952060.0007579754),port360,port,Freetown_Sierra Leone,SLE,AF,18955.581345159495,N
EGp16,EGp16a,Egypt,Zeit Bay Terminal,<Null>,Oil and Gas Terminal,27.837162,33.583454,E,N,Oil and Gas Products,Crude Oil,-999.0,NA,<Null>,Matr-1Xst Well Operated in the North Zeit Bay Psc Area,Zeitco,Suez Oil Co (SUCO),<Null>,<Null>,EGp16,"NGA-WPI-Pub150, Google Maps","NGA-WPI-Pub150, EGp014, EGp015",Al Bahr al Ahmar (Red Sea),47985,POINT (3738492.9983593267 3208511.285122034),maritime119,maritime,,,,20141.79119667685,N
EGp14,EGp14a,Egypt,Sidi Kerir,Kurayr,Oil and Gas Terminal,31.05425,29.67038,E,N,Oil and Gas Products,Liquefied Bulk Petroleum,-999.0,NA,<Null>,Ain Sukhna Terminal via Suez Mediterranean Pipeline (Sumed),Arab Petroleum Pipelines Co. (SUMED),Egyptian General Petroleum Corporation (EGPC),http://www.sumed.org/,Europe,EGp14,"NGA-WPI-Pub150, Google Maps","NGA-WPI-Pub150, EGp007, EGp008, EGp016",Al Iskandariyah (Alexandria),45172,POINT (3302891.5932429284 3617757.8811163567),port23,port,Al Iskandariyh (Alexandria)_Egypt,EGY,AF,22750.827657573824,N
TGp01,TGp01a,Togo,Kpeme,<Null>,Bulk Commodities Port,6.199715,1.517154,E,N,Fertilizer,Phosphoric Acid,-999.0,NA,<Null>,"Deposits at Hahoetoé and Kpogamé, Directly Northeast of Lomé",<Null>,Port Autonome de Kpeme,<Null>,<Null>,TGp1,"NGA-WPI-Pub150, Google Maps","NGA-WPI-Pub150, TGp002, TGp005, TGp006",Maritime,46095,POINT (168888.81073497818 686888.6013719748),port657,port,Lome_Toga,TGO,AF,26802.91686780417,N
SLp01,SLp01a,Sierra Leone,Bonthe,<Null>,Bulk Commodities Port,7.530283,-12.501203,A,N,Mineral Sands,"Rutile, Ilmenite Concentrate, Zircon Concentrate",-999.0,NA,<Null>,Operations at Lanti and Gangama,Sierra Rutile,Sierra Leone Ports Authority,https://www.ncpsl.gov.sl/slpa/,<Null>,SLp1,"NGA-WPI-Pub150, Google Maps","NGA-WPI-Pub150, SLp003, SLp004, SLp005",Southern,45867,POINT (-1391627.552263344 835095.275341427),port825,port,Nitti_Sierra Leone,SLE,AF,28783.039704183393,N
MZp05,MZp05a,Mozambique,Quelimane,<Null>,Bulk Commodities Port,-17.879889,36.879627,E,N,Coal,Unspecified,-999.0,NA,<Null>,<Null>,Cornelder Quelimane CQ,"Portos e Caminhos de Ferro de Moçambique, E.P.",https://www.cfm.co.mz/index.php/pt/,<Null>,MZp5,"NGA-WPI-Pub150, Google Maps","NGA-WPI-Pub150, MZp009, MZp013",Zambezia,46910,POINT (4105421.298285863 -2010382.630831108),port1076,port,Quelimane_Mozambique,MOZ,AF,39251.533136550424,N
NGp04,NGp04a,Nigeria,Forcados,<Null>,Oil and Gas Terminal,5.349901,5.352151,E,N,Oil and Gas Products,Crude Oil,240.0,Thousand barrels per day,<Null>,The Trans Forcados Pipeline (Tfp),Shell Petroleum Development Co. of Nigeria Ltd. (SPDC),Nigerian Ports Authority,<Null>,<Null>,NGp4,"NGA-WPI-Pub150, Google Earth","NGA-WPI-Pub150, NGp004, NGp025, NGp028",Delta,46160,POINT (595798.7239687099 592434.423442721),port1383,port,Warri_Nigeria,NGA,AF,45071.29527969234,N
NGp03,NGp03a,Nigeria,Escravos Oil Terminal,<Null>,Oil and Gas Terminal,5.607665,5.195441,E,N,Oil and Gas Products,"Crude Oil, Refined Oil Products, Liquefied Natural Gas (LNG)",2600.0,Thousand barrels,<Null>,<Null>,Chevron Nigeria Ltd.,Chevron Nigeria Ltd.,https://www.chevron.com/,<Null>,NGp3,"NGA-WPI-Pub150, Google Earth","NGA-WPI-Pub150, NGp004",Delta,46135,POINT (578353.846566496 621069.0692014878),port587,port,Koko_Nigeria,NGA,AF,52599.77737778201,N
MAp04,MAp04a,Morocco,Kenitra,Port of Kenitra-Mehdia,Bulk Commodities Port,34.267018,-6.654793,E,N,Scrap Metal,Dry Bulk Cargo,-999.0,NA,<Null>,<Null>,<Null>,Societe d'Exploitation des Ports SA (SODEP),https://www.marsamaroc.co.ma,<Null>,MAp4,"NGA-WPI-Pub150, Google Maps","NGA-WPI-Pub150, MAp002, MAp011",Gharb - Chrarda - Béni Hssen,45785,POINT (-740808.1680946414 4040654.649441461),maritime2640,maritime,,,,52677.51043595936,N
EGp13,EGp13a,Egypt,Ras Shukhier,<Null>,Oil and Gas Terminal,28.134809,33.278545,E,N,Oil and Gas Products,"Crude Oil, Liquefied Petroleum Gas (LPG)",-999.0,NA,<Null>,<Null>,Egyptian General Petroleum Corporation (EGPC),Egyptian General Petroleum Corporation (EGPC),<Null>,<Null>,EGp13,"NGA-WPI-Pub150, Google Maps","NGA-WPI-Pub150, EGp019",Al Bahr al Ahmar (Red Sea),48015,POINT (3704550.68374104 3245836.787402115),maritime119,maritime,,,,60184.703070799544,N
EGp08,EGp08a,Egypt,Hamrawein,<Null>,Bulk Commodities Port,26.255787,34.204605,E,N,Fertilizer,"Phosphate Rock, Phosphate (Bulk)",-999.0,NA,<Null>,<Null>,MCC Mining,MCC Mining,<Null>,<Null>,EGp8,"NGA-WPI-Pub150, Google Maps","NGA-WPI-Pub150, EGp013",Al Bahr al Ahmar (Red Sea),47974,POINT (3807639.211385059 3011899.0840462106),port191,port,Bur Safago_Egypt,EGY,AF,65042.16800297215,N
GWp01,GWp01a,Guinea-Bissau,Buba,<Null>,Bulk Commodities Port,11.586798,-14.998924,A,N,Aluminum,Bauxite,-999.0,NA,<Null>,Boe Region,Sociedade Mineira de Investimentos Bauxite Angola,Sociedade Mineira de Investimentos Bauxite Angola,<Null>,<Null>,GWp1,Google Earth,"GWp001, GWp002",Quinara,N/A,POINT (-1669672.58212701 1290142.2670438825),port150,port,Bissau_Guinea-Bissau,GNB,AF,71285.04758730663,N
NGp05,NGp05a,Nigeria,Forcados Oil Terminal,<Null>,Oil and Gas Terminal,5.166667,5.183333,A,N,Oil and Gas Products,Crude Oil,240.0,Thousand barrels per day,<Null>,The Trans Forcados Pipeline (Tfp),Shell Petroleum Development Co. of Nigeria Ltd. (SPDC),Nigerian Ports Authority,<Null>,<Null>,NGp5,"NGA-WPI-Pub150, Google Earth","NGA-WPI-Pub150, NGp004, NGp024, NGp025, NGp028",Delta,46161,POINT (577005.990171971 572086.6787761571),port1383,port,Warri_Nigeria,NGA,AF,71391.2910035213,N
SOp03,SOp03a,Somalia,Kismaayo,Port of Chisimaio,General Cargo Port,-0.386881,42.545998,E,N,Charcoal,Unspecified,-999.0,NA,<Null>,<Null>,<Null>,Somali Ports Authority,<Null>,<Null>,SOp3,"NGA-WPI-Pub150, Google Maps","NGA-WPI-Pub150, SOM002",Jubbada Hoose,47130,POINT (4736198.832651636 -42779.41583993156),maritime377,maritime,,,,84564.36871469943,N
EGp12,EGp12a,Egypt,Ras Gharib,<Null>,Oil and Gas Terminal,28.3317,33.11162,E,N,Oil and Gas Products,Crude Oil,-999.0,NA,<Null>,<Null>,Egyptian General Petroleum Corporation (EGPC),Egyptian General Petroleum Corporation (EGPC),<Null>,<Null>,EGp12,"NGA-WPI-Pub150, Google Maps","NGA-WPI-Pub150, EGp020",Al Bahr al Ahmar (Red Sea),48020,POINT (3685968.677740373 3270584.8497006297),maritime119,maritime,,,,89378.05659510804,N
EGp10,EGp10a,Egypt,Ras Abu Zanimah,<Null>,Bulk Commodities Port,29.043597,33.118695,E,N,Ferroalloys,Ferromanganese,-999.0,NA,<Null>,<Null>,Sinai Manganese Co.,Sinai Manganese Co.,<Null>,<Null>,EGp10,"NGA-WPI-Pub150, Google Maps, EGp002","NGA-WPI-Pub150, EGp002",Janub Sina' (South Sinai),48060,POINT (3686756.263137736 3360456.563043855),maritime2917,maritime,,,,101456.21374421497,N
ZAp04,ZAp04a,South Africa,Mossel Bay,<Null>,Oil and Gas Terminal,-34.180211,22.147287,E,N,Oil and Gas Products,Unspecified Oil Products,2.4,Million metric tons,<Null>,"Petrosa [The Petroleum, Oil and Gas Corporation Of South Africa (Soc) Ltd.]",Transnet National Port Authority,Transnet National Port Authority,https://www.transnetnationalportsauthority.net/Pages/default.aspx,<Null>,ZAp4,"NGA-WPI-Pub150, Google Maps, ZAp003","NGA-WPI-Pub150, ZAp003, WRLDp001, ZAp009, ZAp010",Western Cape,46800,POINT (2465424.7112924876 -4029021.33585159),maritime968,maritime,,,,111565.3740620935,N
LYp07,LYp07a,Libya,Ras Lanuf,<Null>,Oil and Gas Terminal,30.489162,18.583522,E,Y,Oil and Gas Products,"Crude Oil, Refined Oil Products",-999.0,NA,<Null>,"Amal and Ghani and Tibisti Fields, Rasco Refinery",Harouge Oil Operations,Harouge Oil Operations,https://www.vebalibya.com/e<Null>bout-us,<Null>,LYp7,"NGA-WPI-Pub150, Google Maps","NGA-WPI-Pub150, LYp009",Surt,45296,POINT (2068708.2061855968 3544907.0970750465),port21,port,Al Burayqah_Libya,LBY,AF,113462.896957225,N
EGp11,EGp11a,Egypt,Ras Badran Oil Terminal,<Null>,Oil and Gas Terminal,28.94285,33.17281,E,N,Oil and Gas Products,Crude Oil,-999.0,NA,<Null>,<Null>,Suez Oil Co. (SUCO),Suez Oil Co (SUCO),<Null>,<Null>,EGp11,"NGA-WPI-Pub150, Google Maps","NGA-WPI-Pub150, EGp021",Janub Sina' (South Sinai),48025,POINT (3692780.3173820134 3347700.337856072),maritime2917,maritime,,,,115396.53347865437,N
EGp15,EGp15a,Egypt,Wadi Feiran,<Null>,Oil and Gas Terminal,28.7342,33.22097,E,N,Oil and Gas Products,Crude Oil,-999.0,NA,<Null>,<Null>,Zeitco,Egyptian General Petroleum Corporation (EGPC),http://www.sumed.org/,<Null>,EGp15,"NGA-WPI-Pub150, Google Maps","NGA-WPI-Pub150, EGp015",Janub Sina' (South Sinai),48065,POINT (3698141.4640586176 3321321.579179976),maritime119,maritime,,,,120337.17239968764,N
LYp02,LYp02a,Libya,As Sidra,As Sidrah,Oil and Gas Terminal,30.63543,18.366434,E,N,Oil and Gas Products,Crude Oil,80.0,Thousand barrels per day,<Null>,<Null>,Waha Oil Company,Waha Oil Company,https://www.wahaoil.ly/en/brief-on-waha-oil-company/,<Null>,LYp2,"NGA-WPI-Pub150, Google Maps","NGA-WPI-Pub150, LYp008",Surt,45297,POINT (2044542.0805682668 3563722.5233883653),port21,port,Al Burayqah_Libya,LBY,AF,140246.03268421834,N
AGp06,AGp06a,Angola,Porto Amboim,<Null>,Oil and Gas Terminal,-10.749332,13.734899,E,N,Oil and Gas Products,"Crude Oil, Refined Oil Products",-999.0,NA,<Null>,<Null>,Sonangol Shipping Holdings Limited,Porto Amboim Port Authority,<Null>,<Null>,AGp6,"NGA-WPI-Pub150, Google Earth","NGA-WPI-Pub150, AGp012",Cuanza Sul,46570,POINT (1528961.9627770425 -1195728.0109601442),port656,port,Lobito_Angola,AGO,AF,180953.5084098852,N
